Klinikname;Adresse;Ort;Kontakt;Bundesland;ICU low care¹;ICU high care²;ECMO³;Stand;Geocode;Lat;Long;Status
St. Nikolas Stiftshostpital Andernach;Ernestusplatz 1;56626 Andernach;interdisziplinäre Intensivstation Website;RP;hr-icon-green;hr-icon-green;hr-icon-unavailable;22.03.2020                                                  12:30;Ernestusplatz 1, Andernach, Germany;50.440904;7.404755;success
Klinikum Weilheim ;Johann-Baur-Straße  4;82362 Weilheim;7 Website;BY;hr-icon-green;hr-icon-green;hr-icon-unavailable;22.03.2020                                                  13:05;Weilheim an der Teck, Germany;48.616187;9.540481;doubt
Charité - Universitätsmedizin Berlin, Campus Mitte ;Philippstraße   10;10115 Berlin;103i Website;BE;hr-icon-green;hr-icon-green;hr-icon-green;22.03.2020                                                  11:36;Philippstraße 10, Berlin, Germany;52.525955;13.381478;success
St. Franziskus-Hospital Münster;Hohenzollernring 70;48145 Münster;Intensivstationen 19 und 22 Website;NRW;hr-icon-green;hr-icon-green;hr-icon-green;22.03.2020                                                  10:51;Hohenzollernring 70, Münster, Germany;51.960663;7.648953;success
Malteser Krankenhaus St. Hildegardis;Bachemer Str. 29-33;50931 Köln;Interdisziplinäre Intensivstation Website;NRW;hr-icon-green;hr-icon-green;hr-icon-unavailable;22.03.2020                                                  10:26;Cologne, Germany;50.94718;6.934628;doubt
Klinikum Karlsburg;Greifswalder Str. 11A;17495 Karlsburg;Intensivtherapiestation Website;MV;hr-icon-green;hr-icon-green;hr-icon-green;22.03.2020                                                  09:29;Alba Iulia, Romania;46.071674;23.576057;doubt
Herz- und Gefäßzentrum Bad Bevensen;Römstedter Straße 25;29549 Bad Bevensen;Interdisziplinäre Intensivstation Website;NI;hr-icon-green;hr-icon-green;hr-icon-green;21.03.2020                                                  22:05;Römstedter Straße, Bad Bevensen, Germany;53.082762;10.592715;doubt
Ev. Diakonissenkrankenhaus Leipzig;Gerog-Schwarz-Str. 49;4177 Leipzig;Intensivstation Website;SN;hr-icon-green;hr-icon-green;hr-icon-unavailable;21.03.2020                                                  21:10;Leipzig, Germany;51.341053;12.404024;doubt
Karl-Olga-Krankenhaus Stuttgart;Hackstraße 61;70190 Stuttgart;A5 Website;BW;hr-icon-red;hr-icon-yellow;hr-icon-unavailable;21.03.2020                                                  19:09;Hackstraße 61, Stuttgart, Germany;48.789388;9.203741;success
Deutsches Herzzentrum Berlin;Augustenburger Platz  1;13353 Berlin;Kardiochirurgische Intensivmedizin Website;BE;hr-icon-red;hr-icon-yellow;hr-icon-yellow;21.03.2020                                                  19:00;Augustenburger Platz 1, Berlin, Germany;52.542332;13.34784;success
Klinik Schillerhöhe Robert-Bosch-Krankenhaus;Solitudestrasse  18;70839 Gerlingen;Intensiv Website;BW;hr-icon-green;hr-icon-green;hr-icon-green;21.03.2020                                                  16:28;Gerlingen, Germany;48.798726;9.063708;doubt
Sana Klinik Oldenburg in Holstein;Mühlenamp  5;23758 Oldenburg;Intensivstation Website;SH;hr-icon-green;hr-icon-green;hr-icon-unavailable;21.03.2020                                                  16:02;Oldenburg, Germany;53.15846;8.210671;doubt
Klinik Hallerwiese;St. Johannis-Mühlgasse 19;90419 Nürnberg;Intensivstation Website;BY;hr-icon-green;hr-icon-green;hr-icon-unavailable;21.03.2020                                                  15:35;Nuremberg, Germany;49.446007;11.07977;doubt
Klinik Neustadt an der Aisch;Paracelsusustr.  30;91413 Neustadt/Aisch;Intensivstation Website;BY;hr-icon-green;hr-icon-green;hr-icon-unavailable;21.03.2020                                                  15:49;Paracelsusustr.  30, 91413 Neustadt/Aisch;failed;failed;failed
KMG Klinikum Pritzwalk;Giesensdorfer Weg 2a;16928 Pritzwalk;Intensivtation Website;BB;hr-icon-green;hr-icon-green;hr-icon-unavailable;22.03.2020                                                  10:37;Giesensdorfer Weg, Pritzwalk, Germany;53.147805;12.169266;doubt
Kliniken des Landkreises Neumarkt i.d.OPf. / Klinikum Neumarkt;Nürnberger Straße 5;92318 Neumarkt i.d.OPf.;Intensivstation 1A Website;BY;hr-icon-red;hr-icon-green;hr-icon-unavailable;22.03.2020                                                  08:00;Nürnberger Straße, Neumarkt, Germany;49.284389;11.452909;doubt
Helios St. Marienberg Klinik Helmstedt;Conringstrasse 26;38350 Helmstedt;11/12 Website;NI;hr-icon-green;hr-icon-green;hr-icon-unavailable;22.03.2020                                                  11:00;Conringstraße, Helmstedt, Germany;52.231827;11.000958;doubt
Helios Klinikum München West;Steinerweg 5;81241 München;2A ICU Website;BY;hr-icon-red;hr-icon-green;hr-icon-unavailable;21.03.2020                                                  13:59;Steinerweg 5, Munich, Germany;48.144586;11.454136;success
Asklepiosklinik Melsungen;Kasselerstr. 80;34212 Melsungen;Website;0;hr-icon-green;hr-icon-green;hr-icon-unavailable;21.03.2020                                                  14:18;Melsungen, Germany;51.129669;9.547216;doubt
St. Elisabeth Krankenhaus Jülich;Kurfürstenstr. 22;52428 Jülich;Interdisziplinäre Intensivstation Website;NRW;hr-icon-green;hr-icon-green;hr-icon-unavailable;21.03.2020                                                  13:21;Kurfürstenstr. 22, Jülich, Germany;50.925833;6.363133;success
Helios St. Marienberg Klinik Helmstedt;Conringstraße 26;38350 Helmstedt;ITS / Covid19 Website;NI;hr-icon-green;hr-icon-green;hr-icon-unavailable;21.03.2020                                                  13:33;Conringstraße, Helmstedt, Germany;52.231827;11.000958;doubt
Klinikum Christophsbad Göppingen;Faurndauer Straße 6-28;73035 Göppingen;NE 1 Website;BW;hr-icon-green;hr-icon-red;hr-icon-unavailable;21.03.2020                                                  13:08;Faurndauer Straße 6-28, Göppingen, Germany;48.700544;9.643972;success
Krankenhaus Düren gGmbH;Roonstr.  30;52351 Düren;1b und 2C Website;NRW;hr-icon-yellow;hr-icon-yellow;hr-icon-unavailable;21.03.2020                                                  12:56;Düren, Germany;50.801834;6.48195;doubt
Asklepios Klinikum Schwalmstadt;Krankenhausstraße  27;34613 Schwalmstadt;Intensivstation Website;HE;hr-icon-green;hr-icon-green;hr-icon-unavailable;21.03.2020                                                  12:47;Schwalmstadt, Germany;50.911814;9.186931;doubt
Heinrich-Braun-Klinikum Zwickau gGmbH, Intensivbereiche;Karl-Keil-Str. 35 ;8060 Zwickau;Intensivbereiche Website;SN;hr-icon-yellow;hr-icon-yellow;hr-icon-yellow;21.03.2020                                                  12:42;Zwickau, Germany;50.716316;12.487302;doubt
Westküstenklinikum Heide;Esmarchstrasse  50;25746 Heide;Interdisziplinäre Intensivstation Website;SH;hr-icon-red;hr-icon-green;hr-icon-yellow;21.03.2020                                                  12:40;Esmarchstraße 50, Heide, Germany;54.20029;9.081997;success
DRK Krankenhaus Altenkirchen ;Leuzbacherweg  21;57610 Altenkirchen;Intensiv  Website;RP;hr-icon-green;hr-icon-yellow;hr-icon-unavailable;22.03.2020                                                  09:37;Altenkirchen (Westerwald), Germany;50.686408;7.638015;doubt
St. Elisabeth-Hospital Beckum ;Elisabethstraße  10;59269 Beckum;Intensivstation Website;NRW;hr-icon-yellow;hr-icon-green;hr-icon-unavailable;22.03.2020                                                  11:51;Elisabethstraße 10, Beckum, Germany;51.752621;8.039369;success
Klinikum Mittleres Erzgebirge;Alte Marienberger Str.  52;9405 Zschopau;ITS/IMC Website;SN;hr-icon-green;hr-icon-yellow;hr-icon-unavailable;21.03.2020                                                  11:23;Zschopau, Germany;50.748218;13.071693;doubt
Charité, Campus Virchow-Klinikum , Chirurgische Klinik, ITS 21i Schwerpunkt Transplantation;Augustenburger Platz 1;13353 Berlin;21i Website;BE;hr-icon-yellow;hr-icon-yellow;hr-icon-unavailable;22.03.2020                                                  09:19;Augustenburger Platz 1, Berlin, Germany;52.542332;13.34784;success
Evang. Amalie Sieveking Krankenhaus;Haselkamp  33;22359 Hamburg;Intensiv Website;HH;hr-icon-green;hr-icon-green;hr-icon-unavailable;22.03.2020                                                  10:11;Haselkamp 33, Hamburg, Germany;53.641013;10.149581;success
Städtsiches Krankenhaus Nettetal GmbH;Sassenfelderkirchweg 1;41334 Nettetal;Intensiv Website;NRW;hr-icon-green;hr-icon-green;hr-icon-unavailable;22.03.2020                                                  11:27;Sassenfelderkirchweg 1, 41334 Nettetal;failed;failed;failed
Darmstädter Kinderkliniken Prinzessin Margaret;Dieburger Str.  31;64287 Darmstadt;Station D Website;HE;hr-icon-green;hr-icon-green;hr-icon-unavailable;21.03.2020                                                  10:22;Darmstadt, Germany;49.872151;8.651994;doubt
Universitätsklinikum Frankfurt am Main;Theodor-Stern-Kai 7;60590 Frankfurt am Main;C1, anästh.-operative Intensivstation Website;HE;hr-icon-green;hr-icon-green;hr-icon-green;22.03.2020                                                  10:02;Theodor-Stern-Kai 7, Frankfurt, Germany;50.096455;8.661193;success
Antonius Krankenhaus Köln;Schillerstrasse 23;50968 Köln;Intenisvstation Website;NRW;hr-icon-yellow;hr-icon-green;hr-icon-unavailable;22.03.2020                                                  11:11;Schillerstraße 23, Cologne, Germany;50.881532;7.059308;success
Sana Kliniken Ostholstein GmbH - Klinik Eutin;Hospitalstraße  22;23701 Eutin;interdisziplinäre Intensivstation Website;SH;hr-icon-green;hr-icon-green;hr-icon-unavailable;21.03.2020                                                  10:05;Hospitalstraße 22, Eutin, Germany;54.134652;10.605777;success
AGAPLESION Ev. Krankenhaus Mittelhessen;Paul-Zipp-Straße 171;35398 Gießen;Website;HE;hr-icon-green;hr-icon-green;hr-icon-green;22.03.2020                                                  10:33;Paul-Zipp-Straße, Giessen, Germany;50.591068;8.652245;doubt
Städtische Kliniken Mönchengladbach;Hubertusstraße  100;41239 Mönchengladbach;Interdisziplinäre Intensivstation Website;NRW;hr-icon-green;hr-icon-green;hr-icon-unavailable;22.03.2020                                                  09:47;Hubertusstraße 100, Mönchengladbach, Germany;51.158087;6.419924;success
Helios Klinik Blankenhain;Wirthstraße 5;99444 Blankenhain;Intensivstation Website;TH;hr-icon-green;hr-icon-green;hr-icon-unavailable;21.03.2020                                                  23:51;Wirthstraße 5, Blankenhain, Germany;50.859735;11.339669;success
Kreisklinik Bogen;Mussinanstraße 8;94327 Bogen;2.2 Website;BY;hr-icon-green;hr-icon-green;hr-icon-unavailable;21.03.2020                                                  08:42;Mussinanstraße 8, Bogen, Germany;48.909689;12.697131;success
Helios Klinik Wipperfürth;Alte Kölner Straße  9;51688 Wipperfürth;1C Intensivstation Website;NRW;hr-icon-green;hr-icon-green;hr-icon-unavailable;22.03.2020                                                  09:21;Wipperfürth, Germany;51.11782;7.394514;doubt
Klinikum Bielefeld gGmbH;Teutoburger Straße 50;33604 Bielefeld;KAINS - Intensivkoordination Website;NRW;hr-icon-red;hr-icon-green;hr-icon-yellow;22.03.2020                                                  08:43;Teutoburger Straße 50, Bielefeld, Germany;52.01419;8.544037;success
St. Elisabeth Hospital Iserlohn;Hochstraße 63;58638 Iserlohn;Intensivstation Website;NRW;hr-icon-green;hr-icon-green;hr-icon-unavailable;20.03.2020                                                  23:26;Hochstraße 63, Iserlohn, Germany;51.3789;7.690497;success
Klinik Kitzinger Land;Keltenstraße  67;97318 Kitzingen;Interdisziplinäre Intensivstation Website;BY;hr-icon-yellow;hr-icon-green;hr-icon-unavailable;22.03.2020                                                  12:48;Keltenstraße 67, Kitzingen, Germany;49.743563;10.138645;success
Asklepios Klinik Seligenstadt;Dudenhöfer Straße 9;63500 Seligenstadt;Intensivstation Website;HE;hr-icon-yellow;hr-icon-red;hr-icon-unavailable;20.03.2020                                                  22:13;Dudenhöfer Straße 9, Seligenstadt, Germany;50.042282;8.965177;success
OSK Westallgäuklinikum Wangen;Am Engelberg 29;88239 Wangen im Allgäu;Interdisziplinäre Intensivstation Website;BW;hr-icon-green;hr-icon-green;hr-icon-unavailable;22.03.2020                                                  10:52;Am Engelberg, Wangen im Allgäu, Germany;47.692153;9.844824;doubt
Bethanien Krankenhaus Solingen ;Aufderhöher Straße 169;42699 Solingen;Intensivstation  Website;NRW;hr-icon-green;hr-icon-green;hr-icon-green;20.03.2020                                                  22:07;Aufderhöher Straße 169b, Solingen, Germany;51.13794;7.013166;success
Kreiskliniken Darmstadt-Dieburg Standort Jugenheim;Hauptstrasse 30;64342 Seeheim-Jugenheim;Intensivstation Website;HE;hr-icon-green;hr-icon-green;hr-icon-unavailable;21.03.2020                                                  23:04;Hauptstraße 30, Seeheim-Jugenheim, Germany;49.753427;8.638381;success
St. Willibrord-Spital Emmerich-Rees;Willibrordstraße 9;46446 Emmerich;Intensivstation Website;NRW;hr-icon-green;hr-icon-green;hr-icon-unavailable;22.03.2020                                                  08:02;Willibrordstraße 9, Emmerich am Rhein, Germany;51.832705;6.239451;success
Euregio-Klinik Albert-Schweitzer-Straße;Albert-Schweitzer-Straße 10;48527 Nordhorn;Interdisziplinäre Intensivstation Website;NI;hr-icon-green;hr-icon-green;hr-icon-unavailable;21.03.2020                                                  13:37;Albert-Schweitzer-Straße 10, Nordhorn, Germany;52.442746;7.065331;success
St.- Elisabeth Krankenhaus Dorsten;Pfarrer-Wilhelm-Schmitz-Straße  2;46282 Dorsten;Intensivstation Website;NRW;hr-icon-green;hr-icon-green;hr-icon-unavailable;22.03.2020                                                  08:11;Pfarrer-Wilhelm-Schmitz-Straße, Dorsten, Germany;51.65783;6.95602;doubt
Helios Klinikum Krefeld;Lutherplatz 40;47805 Krefeld;B1A1/B1C1/B1A2/B1B2/A2A1/A1A1-D Website;NRW;hr-icon-green;hr-icon-green;hr-icon-green;20.03.2020                                                  19:46;Lutherplatz 40, Krefeld, Germany;51.320943;6.566091;success
Evangelisches Klinikum Bethel, Bethel;Burgsteig  13;33617 Bielefeld;M1, M10, K1, K2, AN-01, AN-02 Website;NRW;hr-icon-green;hr-icon-green;hr-icon-unavailable;22.03.2020                                                  11:35;Burgsteig 13, Bielefeld, Germany;52.013475;8.525761;success
Klinik Neustadt a. d. Aisch;Paracelsusstrasse  30;91413 Neustadt a. d. Aisch;Intensivstation Website;BY;hr-icon-red;hr-icon-green;hr-icon-unavailable;22.03.2020                                                  11:34;D, NE, USA;41.003378;-97.310933;doubt
Helios Klinikum Niederberg;Robert-Koch-Straße  2;42549 Velbert;Intensivstation Station 14 Website;NRW;hr-icon-green;hr-icon-yellow;hr-icon-unavailable;22.03.2020                                                  11:41;Robert-Koch-Straße 2, Velbert, Germany;51.350198;7.011574;success
medius KLINIKEN KIRCHHEIM|NÜRTINGEN;Charlottenstraße  10;73230 Kirchheim unter Teck;Website;BW;hr-icon-yellow;hr-icon-green;hr-icon-unavailable;22.03.2020                                                  09:21;Charlottenstraße, Kirchheim unter Teck, Germany;48.652831;9.440822;doubt
Paracelsus-Klinik Zwickau;Werdauer Straße  68;8060 Zwickau;ITS Website;SN;hr-icon-yellow;hr-icon-yellow;hr-icon-unavailable;20.03.2020                                                  19:04;Werdauer Straße 68 a, Zwickau, Germany;50.723701;12.471342;success
medius KLINIK OSTFILDERN-RUIT;Hedelfinger Straße  166  ;73760 Ostfildern;Website;BW;hr-icon-yellow;hr-icon-yellow;hr-icon-unavailable;22.03.2020                                                  09:20;Hedelfinger Straße, Ostfildern, Germany;48.732951;9.253838;doubt
Robert-Bosch Krankenhaus;Auerbachstr. 110;70376 Stuttgart;Innere Intensivstation 1D Website;BW;hr-icon-green;hr-icon-green;hr-icon-yellow;20.03.2020                                                  18:45;Stuttgart, Germany;48.802275;9.188624;doubt
Vivantes Humboldt-Klinikum;Am Nordgraben  2;13509 Berlin;19 Website;BE;hr-icon-green;hr-icon-green;hr-icon-unavailable;20.03.2020                                                  18:45;Am Nordgraben 2, Berlin, Germany;52.589816;13.30907;success
Oberschwabenklinik Bad Waldsee;Robert-Koch-Strasse  38;88339 Bad Waldsee;ITS Website;BW;hr-icon-red;hr-icon-green;hr-icon-unavailable;20.03.2020                                                  18:42;Robert-Koch-Straße, Bad Waldsee, Germany;47.924873;9.760949;doubt
Allgemeines Krankenhaus Celle;Siemensplatz 4;29223 Celle;M0 Website;NI;hr-icon-green;hr-icon-green;hr-icon-unavailable;20.03.2020                                                  18:39;Siemensplatz 4, Celle, Germany;52.628846;10.085562;success
Charité CVK Kinderklinik (OHC) - interdisziplinäre Kinderintensivstation;Augustenburger Platz  1;13353 Berlin;Station 25i Website;BE;hr-icon-green;hr-icon-yellow;hr-icon-unavailable;20.03.2020                                                  18:46;Augustenburger Platz 1, Berlin, Germany;52.542332;13.34784;success
Caritaskrankenhaus Bad Mergentheim;Uhlandstrasse 7;97980 Bad Mergentheim;Z1/ Z2 Website;BW;hr-icon-green;hr-icon-green;hr-icon-unavailable;20.03.2020                                                  18:41;Uhlandstraße 7, Bad Mergentheim, Germany;49.49067;9.763069;success
AK Nord, Hamburg, Pädiatrische Intensivstation;Tangstedter Landstr.  400;22417 Hamburg;Pädiatrische Intensivstation H71B Website;HH;hr-icon-green;hr-icon-green;hr-icon-unavailable;20.03.2020                                                  18:34;Hamburg, Germany;53.576158;10.007046;doubt
Klinikum Kempten, Klinikverbund Allgäu;Robert-Weixler-Straße 50;87439 Kempten;Interdisziplinäre Intensivstation D01 Website;BY;hr-icon-green;hr-icon-green;hr-icon-unavailable;21.03.2020                                                  07:56;Robert-Weixler-Straße 50, Kempten (Allgäu), Germany;47.732889;10.302632;success
MediClin Herzzentrum Coswig;Lerchenfeld  1;6869 Coswig;ITS/IMC Website;ST;hr-icon-green;hr-icon-green;hr-icon-green;20.03.2020                                                  18:33;Coswig, Germany;51.126349;13.586768;doubt
SLK-Klinikum am Gesundbrunnen Heilbronn;Am Gesundbrunnen 20-26;74078 Heilbronn;Website;BW;hr-icon-green;hr-icon-green;hr-icon-green;21.03.2020                                                  22:39;Am Gesundbrunnen 20-26, Heilbronn, Germany;49.153902;9.18957;success
MEDICLIn Müritz-Klinikum;Weinbergstrasse 19;17192 Waren;ITS Website;MV;hr-icon-green;hr-icon-green;hr-icon-unavailable;20.03.2020                                                  18:25;Weinbergstraße 19a, Waren (Müritz), Germany;53.520947;12.685245;success
Asklepios Klinik Oberviechtach;Teunzer Str.  15;92526 Oberviechtach;IMC Website;BY;hr-icon-green;hr-icon-red;hr-icon-unavailable;22.03.2020                                                  00:40;Oberviechtach, Germany;49.458786;12.421445;doubt
Charité Universitätsmedizin Medizinische Klinik für Kardiologie CBF;Hindenburgdamm  30;12200 Berlin;s32a Website;BE;hr-icon-green;hr-icon-yellow;hr-icon-green;22.03.2020                                                  11:43;Hindenburgdamm 30A, Berlin, Germany;52.441069;13.316676;success
Klinikum Itzehoe;Robert-Koch-Str.  2;25524 Itzehoe;19, 10, 01 Website;SH;hr-icon-green;hr-icon-green;hr-icon-unavailable;21.03.2020                                                  13:19;Itzehoe, Germany;53.935356;9.508247;doubt
ALB FILS KLINIKEN, Standort: Klinik am Eichert;Eichertstr. 3;73035 Göppingen;Zentrum für Intensivmedizin Website;BW;hr-icon-green;hr-icon-green;hr-icon-unavailable;22.03.2020                                                  10:03;Göppingen, Germany;48.702993;9.664922;doubt
Universitätsklinikum Marburg UKGM;Baldinger Str ;35043 Marburg;Intensivstation 2a/b Website;HE;hr-icon-green;hr-icon-green;hr-icon-green;20.03.2020                                                  17:31;Maribor, Slovenia;46.544724;15.650578;doubt
St. Vinzenz-Krankenhaus;Schloßstr.  85;40477 Düsseldorf;Intensivstation, interdisziplinär Website;NRW;hr-icon-green;hr-icon-green;hr-icon-unavailable;20.03.2020                                                  17:26;Dusseldorf, Germany;51.226297;6.801324;doubt
Israelitisches Krankenhaus;Orchideenstieg 14;22297 Hamburg;Intensivstation Website;HH;hr-icon-green;hr-icon-green;hr-icon-unavailable;20.03.2020                                                  17:19;Orchideenstieg 14 a, Hamburg, Germany;53.605364;9.990686;success
Evangelisches Klinikum Bethel, Johannesstift ;Schildescher Strasse  99;33611 Bielefeld;Website;NRW;hr-icon-yellow;hr-icon-green;hr-icon-unavailable;22.03.2020                                                  11:47;Schildescher Straße 99, Bielefeld, Germany;52.041477;8.54135;success
AMEOS Klinikum Schönebeck;Am Gradierwerk 3;39218 Schönebeck;Innere ITS Website;ST;hr-icon-green;hr-icon-green;hr-icon-unavailable;22.03.2020                                                  11:06;Am Gradierwerk, Schönebeck (Elbe), Germany;51.993105;11.714218;doubt
REGIOMED Klinikum Coburg;Ketschendorfer Str. 33;96450 Coburg;41/42 Website;BY;hr-icon-green;hr-icon-green;hr-icon-green;22.03.2020                                                  11:14;Coburg, Germany;50.258998;10.961291;doubt
Malteser Krankenhaus St. Carolus;Carolusstraße 212;2827 Görlitz;Website;SN;hr-icon-green;hr-icon-green;hr-icon-unavailable;20.03.2020                                                  16:56;Carolusstraße 212, Görlitz, Germany;51.144276;14.938843;success
Helios Klinikum Hildesheim internistische Intensiv;Senator Braun Allee 33;31135 Hildesheim;B2 Intensiv Website;NI;hr-icon-red;hr-icon-yellow;hr-icon-unavailable;20.03.2020                                                  16:52;Hildesheim, Germany;52.152573;9.94949;doubt
St. Josef Hospital Med. Klinik I (Kardiologie-Intensivmedizin);Elmarstr.  38;33014 Bad Driburg;Kardiologie - Intensivstation Website;NRW;hr-icon-green;hr-icon-green;hr-icon-unavailable;22.03.2020                                                  13:53;Bad Driburg, Germany;51.735939;9.024351;doubt
Klinikum Worms;Gabriel-von-Seidl-Str.  81;67550 Worms;Interdisziplinäre Intensivstationen Website;RP;hr-icon-green;hr-icon-green;hr-icon-unavailable;20.03.2020                                                  16:34;Worms, Germany;49.639697;8.357528;doubt
Drk Kliniken Berlin Westend;Spandauer Damm 130 ;14050 Berlin;Intensivstation Website;BE;hr-icon-green;hr-icon-green;hr-icon-unavailable;22.03.2020                                                  08:28;Spandauer Damm 130, Berlin, Germany;52.519284;13.276154;success
Asklepios Paulinen Klinik Wiesbaden;Geisenheimer Str.  10;65197 Wiesbaden;Intensivstation  Website;HE;hr-icon-green;hr-icon-green;hr-icon-unavailable;20.03.2020                                                  16:30;Wiesbaden, Germany;50.067275;8.231418;doubt
Kinderklinik und Kinderpoliklinik im Dr. von Haunerschen Kinderspital der LMU München;Lindwurmstr.  4;80337 München;Interdisziplinäre Kinderintensivstation Website;BY;hr-icon-green;hr-icon-green;hr-icon-unavailable;20.03.2020                                                  16:07;Munich, Germany;48.152126;11.544467;doubt
Kreiskrankenhaus Prenzlau;Stettiner Str.  121;17291 Prenzlau;ITS Website;BB;hr-icon-green;hr-icon-yellow;hr-icon-unavailable;21.03.2020                                                  09:32;Prenzlau, Germany;53.317345;13.864678;doubt
Marien-Hospital;Hervester Str.  57;45768 Marl;Interdisziplinäre Intensivstation Website;NRW;hr-icon-green;hr-icon-green;hr-icon-unavailable;22.03.2020                                                  09:53;Marl, Germany;51.671542;7.114052;doubt
Klinikum am Steinenberg;Steinenbergstraße 31;72764 Reutlingen;D5i Website;BW;hr-icon-green;hr-icon-green;hr-icon-green;20.03.2020                                                  15:38;Steinenbergstraße 31, Reutlingen, Germany;48.483329;9.218216;success
Herz jesu Krankenhaus Münster-Hiltrup;Westfalenstrasse 109;48165 Münster;Intensivstation 1b Website;NRW;hr-icon-green;hr-icon-green;hr-icon-unavailable;21.03.2020                                                  18:27;Westfalenstraße 109, Münster, Germany;51.910257;7.63301;success
Evangelisches Stadtkrankenhaus Saarbrücken;Großherzog Friedrich Str. 44;66111 Saarbrücken;Interdisziplinäre Intensivstation Website;SL;hr-icon-green;hr-icon-green;hr-icon-unavailable;20.03.2020                                                  15:34;Saarbrücken, Germany;49.234378;6.978198;doubt
Filderklinik;Im Haberschlai  7;70794 Filderstadt;Intensiv Website;BW;hr-icon-green;hr-icon-green;hr-icon-unavailable;22.03.2020                                                  12:47;Filderstadt, Germany;48.683414;9.211114;doubt
Asklepios Südpfalzklinik Germersheim;An Fronte Karl 2;76726 Germersheim;Intensivstation Website;RP;hr-icon-green;hr-icon-green;hr-icon-unavailable;20.03.2020                                                  15:30;An Fronte Karl 2, Germersheim, Germany;49.219771;8.365475;success
Heilig Geist-Krankenhaus;Graseggerstr. 105;50737 Köln;interdisziplinäre Intensivstation Website;NRW;hr-icon-yellow;hr-icon-yellow;hr-icon-unavailable;21.03.2020                                                  12:16;Graseggerstr. 105, Cologne, Germany;50.992215;6.923611;success
Altonaer Kinderkrankenhaus;Bleickenallee 38;22763 Hamburg;Kinderintensivstation Website;HH;hr-icon-green;hr-icon-green;hr-icon-unavailable;20.03.2020                                                  15:17;Bleickenallee 38c, Hamburg, Germany;53.552527;9.912343;success
Sana HANSE-Klinikum Wismar GmbH;Störtebekerstraße 6;23966 Wismar;C2 Website;MV;hr-icon-green;hr-icon-green;hr-icon-unavailable;20.03.2020                                                  15:15;Störtebekerstraße 6, Wismar, Germany;53.884629;11.437987;success
Asklepios Stadtklinik Bad Wildungen;Brunnenallee 19;34537 Bad Wildungen;Intensivstation Website;HE;hr-icon-red;hr-icon-green;hr-icon-unavailable;22.03.2020                                                  09:37;Brunnenallee 19, Bad Wildungen, Germany;51.117138;9.114575;success
Klinikum Ernst von Bergmann Potsdam;Charlottenstraße 72;14467 Potsdam;Website;BB;hr-icon-green;hr-icon-green;hr-icon-unavailable;20.03.2020                                                  15:06;Charlottenstraße 72, Potsdam, Germany;52.402435;13.066889;success
MEDIAN Klinik NRZ Magdeburg;Gustav-Ricker-Straße 4;39120 Magdeburg;Website;ST;hr-icon-red;hr-icon-red;hr-icon-unavailable;20.03.2020                                                  14:53;Gustav-Ricker-Straße, Magdeburg, Germany;52.086156;11.638942;doubt
Klinikum Westfalen - Knappschaftskrankenhaus Dortmund;Am Knappschaftskrankenhaus 1;44309 Dortmund;Zentrum Interdisziplinäre Intensivmedizin Website;NRW;hr-icon-green;hr-icon-green;hr-icon-green;22.03.2020                                                  09:39;Am Knappschaftskrankenhaus 1, Dortmund, Germany;51.520109;7.533004;success
Evangelische Lungenklinik Berlin;Lindenberger Weg  27;13125 Berlin;Intensivstation 2 Website;BE;hr-icon-yellow;hr-icon-red;hr-icon-unavailable;20.03.2020                                                  14:40;Lindenberger Weg 27 B, Berlin, Germany;52.630665;13.505027;success
COLLM KLINIK OSCHATZ;Parkstraße  1;4758 Oschatz;Intensivstation Website;SN;hr-icon-red;hr-icon-green;hr-icon-unavailable;20.03.2020                                                  14:11;Parkstraße 1, Oschatz, Germany;51.291863;13.114091;success
Herzzentrum Leipzig;Strümpellstraße  39;4289 Leipzig;Website;SN;hr-icon-green;hr-icon-green;hr-icon-green;22.03.2020                                                  09:58;Strümpellstraße 39, Leipzig, Germany;51.307381;12.436644;success
KMG Klinikum Kyritz;Perleberger Str. 31a ;16866 Kyritz;ITS / IMC Website;BB;hr-icon-yellow;hr-icon-green;hr-icon-unavailable;22.03.2020                                                  11:56;Kyritz, Germany;52.943397;12.395774;doubt
Carl-von-Basedow-Klinikum ;Weiße Mauer 52;6217 Merseburg;Website;ST;hr-icon-green;hr-icon-green;hr-icon-green;21.03.2020                                                  15:18;Weiße Mauer, Merseburg, Germany;51.36327;11.994878;doubt
Evangelisches Krankenhaus Lippstadt gGmbH;Wiedenbrücker Str. 33;59555 Lippstadt;ITS Website;NRW;hr-icon-green;hr-icon-green;hr-icon-unavailable;20.03.2020                                                  14:06;Lippstadt, Germany;51.673169;8.348657;doubt
Diakomed - Diakoniekrankenhaus Chemnitzer Land gGmbH;Limbacher Straße 19b;9232 Hartmannsdorf;Interdisziplinäre Intensivtherapiestation Website;SN;hr-icon-green;hr-icon-green;hr-icon-unavailable;21.03.2020                                                  07:43;Hartmannsdorf, Germany;50.882037;12.80389;doubt
Krankenhaus Barmherzige Brüder Regensburg;Prüfeninger Straße  86;93049 Regensburg;IVK Website;BY;hr-icon-green;hr-icon-green;hr-icon-green;22.03.2020                                                  12:19;Prüfeninger Straße, Regensburg, Germany;49.016196;12.069839;doubt
Hochwaldkrankenhaus Bad Nauheim;Chaumontplatz  1;61231 Bad Nauheim;interdisziplinäre Intensivstation Website;HE;hr-icon-yellow;hr-icon-red;hr-icon-unavailable;20.03.2020                                                  13:40;Chaumontplatz 1, Bad Nauheim, Germany;50.356766;8.729595;success
St. Marien-Krankenhaus Siegen GmbH;Kampenstraße 51;57072 Siegen;A0 Website;NRW;hr-icon-yellow;hr-icon-yellow;hr-icon-unavailable;20.03.2020                                                  17:45;Kampenstraße 51, Siegen, Germany;50.879347;8.030357;success
Fachkrankenhaus Hubertusburg gGmbH;Hubertusburger-Str.  63;4779 Wermsdorf;Neurologische Intensivstation Website;SN;hr-icon-yellow;hr-icon-red;hr-icon-unavailable;20.03.2020                                                  13:34;Wermsdorf, Germany;51.280719;12.94052;doubt
Asklepios Orthopädische Klinik Hohwald;Hohwaldstraße 40;1844 Neustadt (Sachsen);IMC Website;SN;hr-icon-green;hr-icon-green;hr-icon-unavailable;20.03.2020                                                  13:27;Dresden-Neustadt, Dresden, Germany;51.063054;13.745614;doubt
Pleissentalklinik Werdau;Ronneburger Straße 106;8412 Werdau;11 Website;SN;hr-icon-green;hr-icon-green;hr-icon-unavailable;21.03.2020                                                  14:23;Werdau, Germany;50.731597;12.371598;doubt
Asklepios Klinik Nord;Tangstedter Landstrasse  400;22417 Hamburg;Intensivstation Website;HH;hr-icon-red;hr-icon-yellow;hr-icon-green;20.03.2020                                                  17:38;Tangstedter Landstraße 400, Hamburg, Germany;53.674703;10.028615;success
Asklepios Klinik Pasewalk;Prenzlauer Chaussee 30;17309 Pasewalk;Intensivstation Website;MV;hr-icon-green;hr-icon-green;hr-icon-unavailable;20.03.2020                                                  13:25;Prenzlauer Chaussee 30a, Pasewalk, Germany;53.490606;13.983594;success
Kreiskrankenhaus Prignitz;Dobberziner Strasse  112;19348 Perleberg;ITS Website;BB;hr-icon-green;hr-icon-yellow;hr-icon-unavailable;21.03.2020                                                  12:10;Dobberziner Straße, Perleberg, Germany;53.068907;11.86721;doubt
SRH Klinikum Karlsbad-Langensteinbach GmbH;Guttmannstrasse  1;76307 Karlsbad-Langensteinbach;Website;BW;hr-icon-green;hr-icon-green;hr-icon-unavailable;22.03.2020                                                  10:41;Guttmannstraße 1, Karlsbad, Germany;48.904872;8.503778;success
Sächsische Schweiz Klinik Sebnitz;Dr.-Steudner-Str.  75b;1829 Sebnitz;Interdisziplinäre Intensivstation Website;SN;hr-icon-yellow;hr-icon-yellow;hr-icon-unavailable;20.03.2020                                                  12:55;Sebnitz, Germany;50.971234;14.273121;doubt
Kreiskliniken Günzburg-Krumbach, Klinik Günzburg;Ludwig Heilmeyer Strasse 1;89312 Günzburg;GS8 Intensiv Website;BY;hr-icon-green;hr-icon-green;hr-icon-unavailable;21.03.2020                                                  12:23;Günzburg, Germany;48.455294;10.284105;doubt
Vivantes Klinikum Spandau;Neue Bergstraße 6;13585 Berlin;Website;BE;hr-icon-green;hr-icon-green;hr-icon-unavailable;20.03.2020                                                  12:30;Neue Bergstraße 6 A, Berlin, Germany;52.550007;13.205181;success
Vivantes Friedrichshain;Landsberger Allee 49;10249 Berlin;Website;BE;hr-icon-green;hr-icon-green;hr-icon-green;21.03.2020                                                  16:03;Landsberger Allee 49, Berlin, Germany;52.524573;13.440953;success
Leopoldina Krankenhaus Schweinfurt;Gustav-Adolf-Str.  8;97422 Schweinfurt;Intensivstationen Website;BY;hr-icon-green;hr-icon-green;hr-icon-unavailable;22.03.2020                                                  08:06;Gustav-Adolf-Str 8, Schweinfurt, Germany;50.051887;10.243526;success
Vivantes Humboldt Krankenhaus;Am Nordgraben 2;13509 Berlin;Website;BE;hr-icon-green;hr-icon-green;hr-icon-unavailable;20.03.2020                                                  12:23;Am Nordgraben 2, Berlin, Germany;52.589816;13.30907;success
Knappschaftskrankenhaus Recklinghausen;Dorstener Str.  151;45657 Recklinghausen;Intensivstation Website;NRW;hr-icon-green;hr-icon-green;hr-icon-unavailable;20.03.2020                                                  12:20;Recklinghausen, Germany;51.586044;7.214087;doubt
Caritas-Klinik Dominikus Berlin-Reinickendorf;Kurhausstrasse 30;13467 Berlin;Interdiziplinäre Intensivstation Website;BE;hr-icon-green;hr-icon-green;hr-icon-unavailable;22.03.2020                                                  11:28;Kurhausstraße 30, Berlin, Germany;52.624575;13.295672;success
Vivantes Auguste Viktoria Krankenhaus - AVK;Rubensstraße 125;12157 Berlin;Website;BE;hr-icon-green;hr-icon-green;hr-icon-unavailable;20.03.2020                                                  12:20;Rubensstraße 125, Berlin, Germany;52.462958;13.346289;success
Klinikum Mittelmosel Zell;Barlstrasse 7;56856 Zell;Intensivstation Website;RP;hr-icon-green;hr-icon-yellow;hr-icon-unavailable;20.03.2020                                                  12:20;Zell am Harmersbach, Germany;48.347977;8.071256;doubt
Paracelsus-Klinik Marl;Lipper Weg 11;45770 Marl;Intensivstation Website;NRW;hr-icon-green;hr-icon-green;hr-icon-unavailable;20.03.2020                                                  12:15;Lipper Weg 11, Marl, Germany;51.66232;7.123854;success
Mariannen-Hospital Werl;Unnaerstr. 15;59457 Werl;Intensiv Website;NRW;hr-icon-green;hr-icon-green;hr-icon-unavailable;20.03.2020                                                  12:12;Werl, Germany;51.557355;7.913332;doubt
SRH Waldklinikum Gera;Straße des Friedens 122;7548 Gera;Interdisziplinäre Intensivstation Website;TH;hr-icon-yellow;hr-icon-yellow;hr-icon-unavailable;20.03.2020                                                  12:10;Straße des Friedens 122, Gera, Germany;50.868439;12.051077;success
KKH Demmin;Wollweberstr.  ;17109 Demmin;ITS Website;MV;hr-icon-green;hr-icon-yellow;hr-icon-unavailable;22.03.2020                                                  12:56;Demmin, Germany;53.905922;13.04675;doubt
Ev. Krankenhaus Göttingen Weende;An der Lutter 24;0 Göttingen;Interdisziplinäre Intensivstation Website;NI;hr-icon-green;hr-icon-green;hr-icon-unavailable;20.03.2020                                                  12:03;An der Lutter, Göttingen, Germany;51.55646;9.939793;doubt
Städt. Klinikum Lüneburg gGmbH;Bögelstr 1;21335 Lüneburg;Website;NI;hr-icon-green;hr-icon-green;hr-icon-unavailable;22.03.2020                                                  09:32;Lüneburg, Germany;53.250306;10.414613;doubt
Marienhausklinikum Eifel, Standort Bitburg;Krankenhausstraße  1;54634 Bitburg;6 Website;RP;hr-icon-green;hr-icon-green;hr-icon-unavailable;20.03.2020                                                  11:55;Krankenhausstraße 1, Bitburg, Germany;49.971881;6.526497;success
Klinikum Dahme Spreewald GmbH, Spreewaldklinik Lübben;Schillerstraße 29;15907 Lübben;ITS Website;BB;hr-icon-red;hr-icon-green;hr-icon-unavailable;22.03.2020                                                  09:55;Schillerstraße 29, Lübben (Spreewald), Germany;51945;13.876143;success
Krankenhaus vom Roten Kreuz Bad Cannstatt GmbH;Badstraße 35-37;70372 Stuttgart;Internistische Intensivstation Website;BW;hr-icon-red;hr-icon-red;hr-icon-unavailable;22.03.2020                                                  12:32;Badstraße 35-37, Stuttgart, Germany;48.80367;9.212211;success
St. Josefs-Krankenhaus Potsdam-Sanssouci;Allee nach Sanssouci  7;14471 Potsdam;Interdisziplinäre Intensivstation Website;BB;hr-icon-yellow;hr-icon-green;hr-icon-unavailable;20.03.2020                                                  11:39;Allee nach Sanssouci 7, Potsdam, Germany;52.399677;13.044795;success
Asklepios Südpfalzklinik Kandel;Luitpoldstraße 14;76870 Kandel;Intensiv/IMC Website;RP;hr-icon-green;hr-icon-green;hr-icon-unavailable;20.03.2020                                                  10:57;Luitpoldstraße, Kandel, Germany;49.085249;8.199989;doubt
St. Franziskus-Hospital Lohne;Franziskusstraße 6;49393 Lohne;10 Website;NI;hr-icon-yellow;hr-icon-green;hr-icon-unavailable;22.03.2020                                                  09:33;Franziskusstraße 6, Lohne (Oldenburg), Germany;52.664677;8.241098;success
radprax Krankenhaus Plettenberg;Ernst-Moritz-Arndt-Str.  17;58840 Plettenberg;5 Website;NRW;hr-icon-green;hr-icon-green;hr-icon-unavailable;20.03.2020                                                  10:37;Plettenberg, Germany;51.233175;7.870354;doubt
Krankenhaus St. Josef  Schweinfurt;Ludwigstrasse  1;97421 Schweinfurt;Interdisziplinäre Intensivstation Website;BY;hr-icon-green;hr-icon-green;hr-icon-unavailable;22.03.2020                                                  10:28;Ludwigstraße 1, Schweinfurt, Germany;50.043912;10.225494;success
Kardinal v. Galen Klinik, St. Elisabeth Damme;Lindenstraße 3-7;49401 Damme;ICU Website;NI;hr-icon-green;hr-icon-green;hr-icon-unavailable;20.03.2020                                                  10:28;Lindenstraße, Damme, Germany;52.519409;8.191968;doubt
KJF Klinik St. Elisabeth;Müller-Gnadenegg-Weg 4;86633 Neuburg a.d. Donau;interdisziplinäre Intensivstation Website;BY;hr-icon-green;hr-icon-green;hr-icon-unavailable;22.03.2020                                                  11:04;Müller-Gnadenegg-Weg 4a, Neuburg, Germany;48.730639;11.175136;success
Schön Klinik Neustadt;Am Kiebitzberg 10;23730 Neustadt;Website;SH;hr-icon-green;hr-icon-green;hr-icon-unavailable;20.03.2020                                                  10:20;Am Kiebitzberg 10, Neustadt in Holstein, Germany;54.090335;10.829522;success
Klinikum Passau, Klinik für Anästhesiologie und operative Intensivmedizin;Innstraße  76;94032 Passau;Intensivstationen 24 und 24a Website;BY;hr-icon-green;hr-icon-green;hr-icon-green;21.03.2020                                                  22:46;Innstraße 76, Passau, Germany;48.56505;13.445141;success
Universitätsklinikum Leipzig, Kinderklinik;Liebigstraße  20a;4103 Leipzig;Interdisziplinäre Kinderintensivstation Website;SN;hr-icon-green;hr-icon-green;hr-icon-unavailable;20.03.2020                                                  10:03;Liebigstraße 20, Leipzig, Germany;51.33136;12.386599;success
Helios Park-Klinikum Leipzig;Strümpelstraße  41;4289 Leipzig;Website;SN;hr-icon-red;hr-icon-green;hr-icon-unavailable;22.03.2020                                                  09:26;Leipzig, Germany;51.341053;12.404024;doubt
Maria-Theresia-Klinik;Bavariaring  46;80336 München;Station 3 Website;BY;hr-icon-green;hr-icon-green;hr-icon-unavailable;20.03.2020                                                  09:56;Bavariaring 46, Munich, Germany;48.126494;11.54945;success
Kreiskrankenhaus Bergstraße ;Viernheimerstraße 2;64646 Heppenheim;Interdisziplinäre Intensivstation Website;HE;hr-icon-yellow;hr-icon-yellow;hr-icon-unavailable;20.03.2020                                                  10:54;Heppenheim (Bergstraße), Germany;49.640032;8.630699;doubt
Klinikum Landau-Südliche Weinstraße GmbH, Standort Landau;Bodelschwinghstraße  11;76829 Landau in der Pfalz;Intensivstation Website;RP;hr-icon-green;hr-icon-yellow;hr-icon-unavailable;20.03.2020                                                  09:47;Bodelschwinghstraße 11, Landau, Germany;49.205906;8.103814;success
Marienhospital Wesel;Pastor-Janssen-Str.  8-38;46483 Wesel;Interdisziplinäre Intensivstation Website;NRW;hr-icon-green;hr-icon-green;hr-icon-unavailable;20.03.2020                                                  15:41;Wesel, Germany;51.664636;6.625631;doubt
Krankenhaus Waldfriede;Argentinische Allee 40 ;14163 Berlin;Interdisziplinäre Intensivstation Website;BE;hr-icon-green;hr-icon-green;hr-icon-unavailable;20.03.2020                                                  09:30;Argentinische Allee 40, Berlin, Germany;52.444357;13.240559;success
Klinik Amsee GmbH;Amsee  6;17192 Waren (Müritz);Website;MV;hr-icon-green;hr-icon-green;hr-icon-unavailable;20.03.2020                                                  09:25;Waren (Müritz), Germany;53.52249;12.678995;doubt
Park-Klinik Weissensee;Schönstraße 80;13186 Berlin;Intensivstation Website;BE;hr-icon-green;hr-icon-green;hr-icon-unavailable;22.03.2020                                                  10:02;Schönstraße 80, Berlin, Germany;52.554922;13.451813;success
Evangelische Krankenhaus (EvK) Herne-Mitte;Wiescherstr. 24;44625 Herne;Intensivstation Website;NRW;hr-icon-green;hr-icon-yellow;hr-icon-unavailable;22.03.2020                                                  11:32;Herne, Germany;51.540584;7.20971;doubt
Klinikum Altenburgerland;Am Waldessaum 10;4600 Altenburg;25 Website;TH;hr-icon-green;hr-icon-green;hr-icon-unavailable;22.03.2020                                                  10:57;Am Waldessaum 10, Altenburg, Germany;50.972433;12.44031;success
Heliosklinikum Warburg;Hüffertstraße  50;34114 Warburg;Intensivstation/IMC Website;NRW;hr-icon-green;hr-icon-green;hr-icon-unavailable;22.03.2020                                                  11:22;Hüffertstraße 50, Warburg, Germany;51.487494;9.140395;success
Klinikum St. Georg Leipzig gGmbH;Delitzscher Straße 141;4129 Leipzig;Website;SN;hr-icon-red;hr-icon-yellow;hr-icon-unavailable;20.03.2020                                                  10:15;Delitzscher Straße 141, Leipzig, Germany;51.383083;12.38005;success
Klinikum Barnim GmbH, Werner Forßmann Krankenhaus Eberswalde;Rudolf Breitscheidstr  100;16225 Eberswalde;Intensivstation 1 Intermediate Care Station 14 Website;BB;hr-icon-green;hr-icon-green;hr-icon-red;20.03.2020                                                  08:53;Rudolf-Breitscheid-Straße 100, Eberswalde, Germany;52.82858;13.791029;doubt
Kliniken Erlabrunn gGmbH;Am Märzenberg 1A;8359 Breitenbrunn;Interdisziplinäre ITS/IMC/Stroke Unit Website;SN;hr-icon-green;hr-icon-yellow;hr-icon-unavailable;20.03.2020                                                  08:52;Breitenbrunn, Germany;48.137933;10.40247;doubt
Asklepios Klinik Parchim;John-Brinckman-Straße  8 - 10;19370  Parchim;Station 5  - ITS - Website;MV;hr-icon-green;hr-icon-green;hr-icon-red;20.03.2020                                                  08:45;John-Brinckman-Straße, Parchim, Germany;53.429319;11.853686;doubt
Asklepios Westklinikum, Hamburg Rissen;Suurheid  20;22529 Hamburg;Intensivstation Website;HH;hr-icon-yellow;hr-icon-yellow;hr-icon-red;20.03.2020                                                  12:12;Suurheid 20, Hamburg, Germany;53.582163;9.773048;success
St. Ansgar Krankenhaus Höxter (Klinikverbund KHWE);Brenkhäuserstraße 71;37671 Höxter;Website;NRW;hr-icon-green;hr-icon-green;hr-icon-green;20.03.2020                                                  08:51;Höxter, Germany;51.775929;9.380873;doubt
Katharinen-Hospital Unna;Obere Husemannstraße 2;549423 Unna;1a Website;NRW;hr-icon-red;hr-icon-green;hr-icon-unavailable;20.03.2020                                                  11:36;Unna, Germany;51.537065;7.685846;doubt
Regio Kliniken Kreis Pinneberg Standort Elmshorn;Agnes-Karll-Allee 17;25337 Elmshorn;3 F Website;SH;hr-icon-yellow;hr-icon-green;hr-icon-unavailable;22.03.2020                                                  12:34;Elmshorn, Germany;53.755421;9.659795;doubt
BG Klinikum Bergmannstrost Halle;Merseburger Str.  165;6112 Halle (Saale);Interdisziplinäre Intensivstationen Website;ST;hr-icon-green;hr-icon-green;hr-icon-unavailable;22.03.2020                                                  10:02;Halle, Germany;51.488623;11.976793;doubt
Universitätsklinikum Augsburg;Stenglinstraße 2;86156 Augsburg;Corona-ICU Website;BY;hr-icon-green;hr-icon-green;hr-icon-green;22.03.2020                                                  11:57;Stenglinstraße 2, Augsburg, Germany;48.384596;10.839614;success
Klinik Preetz;Am Krankenhaus 5;24211 Preetz;ITS Stat. 2 Website;SH;hr-icon-green;hr-icon-green;hr-icon-red;20.03.2020                                                  11:25;Am Krankenhaus 5a, Preetz, Germany;54.238767;10.276386;success
St. Marienwörth;Mühlenstraße  39;55543 Bad Kreuznach;Intensiv Website;RP;hr-icon-green;hr-icon-green;hr-icon-red;20.03.2020                                                  07:47;Mühlenstraße 39, Bad Kreuznach, Germany;49.846665;7.861108;success
SANA Kliniken Sommerfeld;Waldhausstrasse 44;16766 Kremmen;IMC Website;BB;hr-icon-red;hr-icon-red;hr-icon-red;20.03.2020                                                  07:12;Kremmen, Germany;52.76222;13.029056;doubt
Krankenhaus Martha-Maria Halle-Dölau;Roentgenstr. 1;6120 Halle;Interdisziplinäre Intensivstation Website;ST;hr-icon-yellow;hr-icon-green;hr-icon-red;20.03.2020                                                  07:07;Halle, Germany;51.488623;11.976793;doubt
Ev. Krankenhaus Wesel;Schermbeckerlandstr. 88;46485 Wesel;IBS Website;NRW;hr-icon-yellow;hr-icon-green;hr-icon-unavailable;21.03.2020                                                  07:20;Wesel, Germany;51.664636;6.625631;doubt
Rottal-Inn Kliniken KU - Eggenfelden;Simonsöder Allee 20;84307 Eggenfelden;Intensivstation Website;BY;hr-icon-green;hr-icon-green;hr-icon-unavailable;19.03.2020                                                  21:00;Simonsöder Allee, Eggenfelden, Germany;48.411806;12.760841;doubt
Charité,  Chirurgische Klinik, Campus Virchow-Klinikum;Augustenburger Platz 1;13353 Berlin;Chirurgische Intensivstation 9i Website;BE;hr-icon-yellow;hr-icon-yellow;hr-icon-unavailable;22.03.2020                                                  11:02;Augustenburger Platz 1, Berlin, Germany;52.542332;13.34784;success
Friedrich-Ebert-Krankenhaus Neumünster ;Friesenstr.  11;24534 Neumünster;59 Website;SH;hr-icon-green;hr-icon-green;hr-icon-unavailable;22.03.2020                                                  10:07;Neumünster, Germany;54.070224;9.982761;doubt
EvangelischeElisabeth Klinik Berlin;Lützowstraße  24-26;10785 Berlin;Intensivstation 7 Website;BE;hr-icon-yellow;hr-icon-yellow;hr-icon-red;21.03.2020                                                  12:07;Lützowstraße 24-26, Berlin, Germany;52.503727;13.364056;success
St. Josef-Krankenhaus Engelskirchen;Wohlandstaße 30;57166 Engelskirchen;Intensivstation Website;NRW;hr-icon-yellow;hr-icon-yellow;hr-icon-unavailable;22.03.2020                                                  09:04;Engelskirchen, Germany;50.986578;7.412269;doubt
Asklepios Klinikum Hamburg-Harburg;Eißendorfer Pferdeweg  52;21075 Hamburg;Interdisziplinäre Intensivstation 11 Website;HH;hr-icon-green;hr-icon-green;hr-icon-green;19.03.2020                                                  19:22;Eißendorfer Pferdeweg 52, Hamburg, Germany;53.459436;9.950277;success
St. Elisabeth & St. Barbara Krankenhaus;Mauerstrasse  5;6110 Halle;ITS 1 Website;ST;hr-icon-green;hr-icon-green;hr-icon-unavailable;19.03.2020                                                  19:21;Mauerstraße 5, Halle, Germany;51.477467;11.968359;success
Sana Klinikum Remscheid;Burger Straße  211;42859 Remscheid;Interdisziplinäre Intensivstation Website;NRW;hr-icon-green;hr-icon-green;hr-icon-unavailable;21.03.2020                                                  15:02;Burger Straße 211, Remscheid, Germany;51.161184;7.185299;success
Städtisches Klinikum Brandenburg GmbH Hochschulklinikum der MHB;Hochstrasse  29;14770 Brandenburg an der Havel;ITS 1+2 Website;BB;hr-icon-green;hr-icon-green;hr-icon-unavailable;22.03.2020                                                  14:19;Hochstraße 29, Brandenburg, Germany;52.414187;12.545605;success
Rhön Klinikum Campus Bad Neustadt;Von Guttenbergstraße  11;97616 Bad Neustadt;Intensivstation Website;BY;hr-icon-green;hr-icon-green;hr-icon-green;20.03.2020                                                  11:43;Bad Neustadt a.d. Saale, Germany;50.32878;10.212283;doubt
St. Joseph Krankenhaus;Wüsthoffstr.  15;12101 Berlin;Station 28 Website;BE;hr-icon-green;hr-icon-green;hr-icon-unavailable;22.03.2020                                                  11:29;Berlin, Germany;52.52045;13.40732;doubt
Klinikum Dahme Spreewald GmbH, Achenbach Krankenhaus;Köpenicker Str  29;15711 Königs Wusterhausen;ITS Website;BB;hr-icon-yellow;hr-icon-green;hr-icon-unavailable;22.03.2020                                                  09:54;Königs Wusterhausen, Germany;52.291066;13.625284;doubt
Klinikverbund St. Antonius und St. Josef GmbH;Bergstr.  6-12;42105 Wuppertal;Website;NRW;hr-icon-green;hr-icon-green;hr-icon-red;20.03.2020                                                  17:07;Wuppertal, Germany;51.265292;7.143049;doubt
Sana-Herzzentrum Cottbus GmBh;Leipziger Straße  50;3048 Cottbus;Intensivstation Website;BB;hr-icon-red;hr-icon-green;hr-icon-green;22.03.2020                                                  11:50;Leipziger Straße 50, Cottbus, Germany;51.74389;14.319423;success
Alb Donau Klinikum- Standort Ehingen;Spitalstrasse 29;89584 Ehingen;Intensivstation Website;BW;hr-icon-green;hr-icon-green;hr-icon-red;19.03.2020                                                  17:25;Spitalstraße 29, Ehingen (Donau), Germany;48.280655;9.718934;success
Universität Magdeburg, Klinik für Kardiologie und Angiologie;Leipzigerstr.  44;39120 Magdeburg;KAR3I;ST;hr-icon-red;hr-icon-green;hr-icon-green;19.03.2020                                                  16:57;Magdeburg, Germany;52.125911;11.626831;doubt
St. Bernhard-Hospital Brake;Claußenstraße 3;26919 Brake;ITS Website;NI;hr-icon-yellow;hr-icon-yellow;hr-icon-red;19.03.2020                                                  16:55;Claußenstraße 3, Brake (Unterweser), Germany;53.324474;8.482592;success
Helios Klinikum Schleswig;St. Jürgener Str. 1-3;24837 Schleswig;Interdiszipliäre Intensivmedizin Website;SH;hr-icon-green;hr-icon-green;hr-icon-unavailable;22.03.2020                                                  09:06;Schleswig, Germany;54.522594;9.559118;doubt
KRH Siloah Hannover;Stadionbrücke  4;30459 Hannover;Intensivstation Website;NI;hr-icon-green;hr-icon-green;hr-icon-green;19.03.2020                                                  16:31;Stadionbrücke, Hanover, Germany;52.358638;9.725505;doubt
Asklepios Klinik Altona;Paul-Ehrlich Str. 1 ;22763 Hamburg;2C und 2I Website;HH;hr-icon-green;hr-icon-green;hr-icon-red;22.03.2020                                                  07:39;Hamburg, Germany;53.576158;10.007046;doubt
Universität München Campus Innenstadt;Nußbaumstr. 20;80336 München;Anaesthesiologisch-Chirurgische Intensivstation ANIS5;BY;hr-icon-green;hr-icon-green;hr-icon-unavailable;19.03.2020                                                  16:11;Munich, Germany;48.152126;11.544467;doubt
Sana Kliniken des Landkreises Cham;August-Holz-Str. 1;93413 Cham;Interdisziplinäre Intensivstation;BY;hr-icon-green;hr-icon-green;hr-icon-red;19.03.2020                                                  16:07;Cham, Germany;49.221966;12.662355;doubt
Universitätsklinikum Schleswig-Holstein Campus Lübeck;Ratzeburger Allee  160;23538 Lübeck;Sektion Interdisziplinäre Konservative Intensivmedizin;SH;hr-icon-green;hr-icon-green;hr-icon-green;19.03.2020                                                  15:44;Ratzeburger Allee 160, Lübeck, Germany;53.838778;10.707901;success
Alb-Donau-Klinikum Blaubeuren;Ulmerstr.  26;89143 Blaubeuren;Interdisziplinäre Intensivstation;BW;hr-icon-green;hr-icon-green;hr-icon-unavailable;19.03.2020                                                  15:22;Blaubeuren Abbey, Germany;48.411078;9.789552;doubt
Asklepios Klinik Lindau;Friedrichshafener Str.  82;88131 Lindau;ITS Website;BY;hr-icon-green;hr-icon-green;hr-icon-unavailable;22.03.2020                                                  14:11;Lindau, Germany;47.558444;9.704194;doubt
Klinik für Neurologie am Universitätsklinikum des Saarlandes, Homburg/Saar;Kirrberger Strasse 100;66421 Homburg;NN-05 und NN-01 Website;SL;hr-icon-yellow;hr-icon-yellow;hr-icon-unavailable;20.03.2020                                                  13:46;Kirrberger Straße, Homburg, Germany;49.315062;7.342908;doubt
Kreisklink Wertingen;Ebersberg 36;86637 Wertingen;IPS/IMC Website;BY;hr-icon-green;hr-icon-green;hr-icon-unavailable;22.03.2020                                                  11:31;Ebersberg, Wertingen, Germany;48.564223;10.679576;doubt
Rotkreuzklinik Wertheim;Rotkreuzstrasse  2;97877 Wertheim;Intensiv Website;BW;hr-icon-green;hr-icon-green;hr-icon-unavailable;20.03.2020                                                  13:58;Wertheim am Main, Germany;49.782561;9.502495;doubt
Asklepios Klinik Birkenwerder;Hubertusstrasse 12-22;16547 Birkenwerder;ITS Website;BB;hr-icon-yellow;hr-icon-yellow;hr-icon-unavailable;20.03.2020                                                  13:44;Birkenwerder, Germany;52.690177;13.270468;doubt
Gesundheitszentrum Odenwaldkreis GmbH;Albert Schweitzer Straße  10-20;64711 Erbach;Intensivstation I + II Website;HE;hr-icon-green;hr-icon-green;hr-icon-red;19.03.2020                                                  21:48;Erbach, Germany;49.660813;8.997784;doubt
Universitätsklinikum Jena;Am Klinikum 1;7747 Jena;Intensivmedizin Website;TH;hr-icon-yellow;hr-icon-yellow;hr-icon-yellow;21.03.2020                                                  10:58;Am Klinikum 1, Jena, Germany;50.884572;11.620658;success
Diakoneo Rangauklinik Ansbach GmbH;Strüth 24;91522 Ansbach;9;BY;hr-icon-red;hr-icon-red;hr-icon-red;19.03.2020                                                  14:51;Ansbach, Germany;49.302883;10.571391;doubt
Rhein-Mosel-Fachklinik Andernach;Vulkanstr.  58;56626 Andernach;Neurologie 3 Website;RP;hr-icon-green;hr-icon-green;hr-icon-red;19.03.2020                                                  18:36;Andernach, Germany;50.431608;7.40642;doubt
Universitätsklinikum Marien Hospital Herne;Hölkeskampring  40;44625 herne;interdisziplinäre Intensivstation Website;NRW;hr-icon-green;hr-icon-green;hr-icon-green;20.03.2020                                                  22:30;Hölkeskampring 40, Herne, Germany;51.529265;7.226372;success
Universitätsmedizin Rostock - Teilkörperschaft der Universität Rostock;Gehlsheimer Str. 20;18147 Rostock;Neurologische Intensivstation Website;MV;hr-icon-yellow;hr-icon-yellow;hr-icon-red;19.03.2020                                                  16:10;Rostock, Germany;54.084592;12.088019;doubt
EVK Mettmann;Gartenstraße 4-8;40822 Mettmann;Interdisziplinäre Intensivstation Website;NRW;hr-icon-yellow;hr-icon-green;hr-icon-unavailable;19.03.2020                                                  14:17;Gartenstraße, Mettmann, Germany;51.249793;6.971172;doubt
Sächsisches Krankenhaus Arnsdorf;Hufelandstr.  15;1477 Arnsdorf;Intensivstation Website;SN;hr-icon-red;hr-icon-yellow;hr-icon-red;19.03.2020                                                  14:09;Miłkowice, Poland;51.255206;16.056979;doubt
Krankenhaus Angermünde;Rudolf-Breitscheid-Str. 37;16278 Angermünde;Intensivstation Website;BB;hr-icon-red;hr-icon-green;hr-icon-unavailable;22.03.2020                                                  08:42;Angermünde, Germany;53.01787;13.996516;doubt
Krankenhaus Maria Hilf MAW;Dahlienweg 3-5;53474 Bad Neuenahr-Ahrweiler;Intensiv Website;RP;hr-icon-red;hr-icon-yellow;hr-icon-red;19.03.2020                                                  13:54;Dahlienweg, Bad Neuenahr-Ahrweiler, Germany;50.54139;7.126953;doubt
Marienhausklinik St. Josef Losheim am See;Krankenhausstraße 21;66679 Losheim am See;Intensivstation Website;SL;hr-icon-green;hr-icon-green;hr-icon-red;19.03.2020                                                  14:04;Krankenhausstraße 21, Losheim am See, Germany;49.509328;6.739346;success
St. Franziskus Hospital Ahlen;Robert-Koch Str.  55;59227 Ahlen;1F Website;NRW;hr-icon-green;hr-icon-green;hr-icon-unavailable;19.03.2020                                                  13:38;Ahlen, Germany;51.760596;7.89684;doubt
Asklepios Stadtklinik Bad Tölz;Schützenstr. 15;83646 Bad Tölz;Intensivstation Website;BY;hr-icon-green;hr-icon-green;hr-icon-unavailable;20.03.2020                                                  13:19;Bad Tölz, Germany;47.760644;11.562897;doubt
Kreiskrankenhaus Saarburg GmbH;Graf-Siegfried-Str. 115;54439 Saarburg;Intensivstation Website;RP;hr-icon-green;hr-icon-green;hr-icon-unavailable;22.03.2020                                                  13:52;Saarburg, France;48.735219;7.055925;doubt
Caritas Krankenhaus St. Josef;Landshuter Str. 65;93053 Regensburg;Interdisziplinäre Intensivstation Website;BY;hr-icon-red;hr-icon-yellow;hr-icon-green;21.03.2020                                                  16:07;Regensburg, Germany;49.021388;12.114729;doubt
Kreisklinik Wörth an der Donau;Krankenhausstraße 2;93086 Wörth an der Donau;Interdisziplinäre Intensivstation Website;BY;hr-icon-green;hr-icon-yellow;hr-icon-unavailable;22.03.2020                                                  11:47;Krankenhausstraße 2, Wörth a.d. Donau, Germany;48.998728;12.399395;success
Städtisches Klinikum Dresden- Standort Neustadt;Industriestrasse  40;1129 Dresden;Intensivstation S216 Website;SN;hr-icon-green;hr-icon-yellow;hr-icon-red;19.03.2020                                                  13:22;Industriestraße 40, Dresden, Germany;51.089936;13.709038;success
Evangelische Lungenklinik Berlin;Lindenberger Weg 27;13125 Berlin;Intensivstation 1 Website;BE;hr-icon-green;hr-icon-green;hr-icon-unavailable;20.03.2020                                                  17:23;Lindenberger Weg 27 B, Berlin, Germany;52.630665;13.505027;success
Sana-Klinikum Hameln;Saint-Maur-Platz ;31785 Hameln;C2 Website;NI;hr-icon-yellow;hr-icon-yellow;hr-icon-red;22.03.2020                                                  07:50;Saint-Maur-Platz, Hamelin, Germany;52.106648;9.352665;success
Vincenz-Krankenhaus Datteln;Rottstraße 11;45711 Datteln;Intensivstation Website;NRW;hr-icon-red;hr-icon-green;hr-icon-unavailable;19.03.2020                                                  13:07;Rottstraße 11, Datteln, Germany;51.652261;7.344868;success
Havelland Kliniken Standort Rathenow;Forststraße 45;14712 Rathenow;Intensivstation Website;BB;hr-icon-red;hr-icon-green;hr-icon-unavailable;22.03.2020                                                  10:51;Forststraße, Rathenow, Germany;52.605794;12.346448;doubt
ViDia Diakonissenkrankenhaus;Diakonissenstraße 28;76199 Karlsruhe;Intensivstation Website;BW;hr-icon-yellow;hr-icon-yellow;hr-icon-red;21.03.2020                                                  16:15;Diakonissenstraße 28, Karlsruhe, Germany;48.971922;8.411201;success
Klinikum Nürnberg Süd;Breslauer Straße 201 ;90471 Nürnberg;Internistische Intensivstation B.U1.3-5 Website;BY;hr-icon-green;hr-icon-green;hr-icon-green;20.03.2020                                                  09:04;Breslauer Straße, Nuremberg, Germany;49.412457;11.143902;doubt
Johanniter Gmbh - Waldkrankenhaus Bonn;Waldstrasse  73;53177 Bonn;Interdisziplinäre Intensivstation Website;NRW;hr-icon-red;hr-icon-red;hr-icon-unavailable;19.03.2020                                                  12:46;Waldstraße 73, Bonn, Germany;50.682191;7.128431;success
Klinikum Osnabrück;Am Finkenhügel  1;49076 Osnabrück;0541 405 5500 Website;NI;hr-icon-green;hr-icon-green;hr-icon-green;21.03.2020                                                  13:37;Am Finkenhügel 1, Osnabrück, Germany;52.277868;8.003303;success
Vivantes Klinikum Neukölln;Rudower Straße 48;12351 Berlin;ITS 2 Website;BE;hr-icon-yellow;hr-icon-green;hr-icon-red;22.03.2020                                                  10:39;Rudower Straße 48, Berlin, Germany;52.443995;13.562347;success
GRN-Klinik Schwetzingen;Bodelschwinghstr.  10;68723 Schwetzingen;Intensivstation Website;BW;hr-icon-yellow;hr-icon-yellow;hr-icon-red;19.03.2020                                                  12:28;Schwetzingen, Germany;49.383659;8.569357;doubt
Asklepios Klinik Kinderklinik Sankt Augustin;Arnold-Janssen-Strasse 29;53757 Sankt Augustin;KITZ Website;NRW;hr-icon-green;hr-icon-green;hr-icon-unavailable;22.03.2020                                                  10:04;Arnold-Janssen-Straße 29, Sankt Augustin, Germany;50.775466;7.180919;success
Sankt Gertrauden Krankenhaus GmbH;Parezter Str.  12;10713 Berlin;ITS-35 Website;BE;hr-icon-green;hr-icon-green;hr-icon-unavailable;21.03.2020                                                  19:19;Berlin, Germany;52.52045;13.40732;doubt
UK Würzburg, Klinik für Chirurgie I;Oberdürrbacher Straße 6;97080 Würzburg;chirurgische Intensivstation Website;BY;hr-icon-red;hr-icon-red;hr-icon-red;19.03.2020                                                  12:17;Oberdürrbacher Straße 6, Wurzburg, Germany;49.806911;9.95835;success
Allgemeines Krankenhaus Viersen;Hoserkirchweg 63;41747 Viersen;interdisziplinäre Intensivstation Website;NRW;hr-icon-green;hr-icon-green;hr-icon-green;22.03.2020                                                  12:43;Hoserkirchweg 63, Viersen, Germany;51.251444;6.382848;success
SMH Hospital Düren gGmbH;Hospitalstraße 44;52353 Düren;Intensivstation Erwachsene Website;NRW;hr-icon-yellow;hr-icon-yellow;hr-icon-unavailable;22.03.2020                                                  10:12;Hospitalstraße 44, Düren, Germany;50.822651;6.466295;success
Agaplesion Diakonieklinikum Hamburg;Hohe Weide  17;20259 Hamburg;D1 Website;HH;hr-icon-green;hr-icon-green;hr-icon-unavailable;21.03.2020                                                  13:13;Hohe Weide 17 c, Hamburg, Germany;53.570688;9.964865;success
St. Elisabeth Krankenhaus Lahnstein - Ihr Gesundeheitszentrum - GmbH;Ostallee  3;56112 Lahnstein;Intensivstation Website;RP;hr-icon-yellow;hr-icon-green;hr-icon-unavailable;22.03.2020                                                  07:25;Ostallee, Lahnstein, Germany;50.303787;7.609469;doubt
Asklepios-ASB Klinik Radeberg;Pulsnitzer Strasse  60;1454 Radeberg;Interdisziplinäre Intensivstation Website;SN;hr-icon-green;hr-icon-green;hr-icon-unavailable;20.03.2020                                                  20:10;Pulsnitzer Straße 60, Radeberg, Germany;51.123733;13.930546;success
Bundeswehrkrankenhaus Berlin;Scharnhorststraße  13;10115 Berlin;Interdisziplinäre Intensivstation Website;BE;hr-icon-yellow;hr-icon-yellow;hr-icon-green;20.03.2020                                                  11:34;Scharnhorststraße 13, Berlin, Germany;52.534942;13.369842;success
Havelland-Kliniken Standort Nauen;Ketziner Straße 21;14641 Nauen;Intensivstation Website;BB;hr-icon-red;hr-icon-green;hr-icon-unavailable;22.03.2020                                                  09:44;Ketziner Straße, Nauen, Germany;52.60501;12.874087;doubt
Sana Klinikum Lichtenberg;Fanningerstraße 32;10365 Berlin;7a/IMC Website;BE;hr-icon-green;hr-icon-green;hr-icon-unavailable;22.03.2020                                                  10:25;Fanningerstraße 32, Berlin, Germany;52.51401;13.496418;success
Schön Klinik Düsseldorf;Am Heerdter Krankenhaus 2;40549 Düsseldorf;Interdisziplinäre Intensivstation Website;NRW;hr-icon-green;hr-icon-green;hr-icon-unavailable;22.03.2020                                                  11:16;Am Heerdter Krankenhaus 2, Dusseldorf, Germany;51.231465;6.727672;success
Stauferklinikum Schwäbisch Gmünd;Wetzgauerstrasse 85;73557 Mutlangen;19 Website;BW;hr-icon-green;hr-icon-green;hr-icon-red;22.03.2020                                                  08:58;Mutlangen, Germany;48.822949;9.79592;doubt
Städtisches Krankenhaus Eisenhüttenstadt GmbH;Friedrich-Engels-Str. 39;15890 Eisenhüttenstadt;Intensivstation Website;BB;hr-icon-green;hr-icon-green;hr-icon-red;20.03.2020                                                  07:57;Eisenhüttenstadt, Germany;52.150308;14.636472;doubt
Sana Krankenhaus Benrath;Urdenbacher Allee  83;40593 Düsseldorf;Interdisziplinäre Intensistation Website;NRW;hr-icon-red;hr-icon-green;hr-icon-red;22.03.2020                                                  10:09;Urdenbacher Allee 83, Dusseldorf, Germany;51.152383;6.870832;success
Johanniter Krankenhaus Bonn;Sträßchensweg  3-5;53113 Bonn;Interdisziplinäre Intensivstation Website;NRW;hr-icon-green;hr-icon-green;hr-icon-red;19.03.2020                                                  15:17;Sträßchensweg, Bonn, Germany;50.712298;7.13449;doubt
Herz-Jesu-Krankenhaus Dernbach;Südring  8;56428 Dernbach;Website;RP;hr-icon-red;hr-icon-green;hr-icon-unavailable;22.03.2020                                                  11:35;Südring 8, Dernbach (Westerwald), Germany;50.452715;7.784665;success
Herzzentrum Dresden Klinik für Herzchirurgie;Fetscherstr. 76;1307 Dresden;Intensiv 2B Website;SN;hr-icon-red;hr-icon-green;hr-icon-green;20.03.2020                                                  09:23;Dresden, Germany;51.055604;13.731021;doubt
SANA Klinikum Offenbach;Starkenburgring 66;63069 Offenbach;S2A Website;HE;hr-icon-green;hr-icon-green;hr-icon-yellow;20.03.2020                                                  13:45;Starkenburgring 66, Offenbach am Main, Germany;50.094347;8.756119;success
Klinikum Würzburg Mitte Standort Missioklinik, Salvatorstrasse 7, 97074 Würzburg;Salvatorstr. 7;97074 Würzburg;Intensivstation Website;BY;hr-icon-yellow;hr-icon-green;hr-icon-unavailable;22.03.2020                                                  11:36;Wurzburg, Germany;49.784984;9.941828;doubt
Klinikum Nordfriesland, Klinik Husum;Erichsenweg  16;25813 Husum;Interdisziplinäre Intensivstation Website;SH;hr-icon-green;hr-icon-green;hr-icon-red;20.03.2020                                                  11:03;Erichsenweg 16, Husum, Germany;54.483032;9.051337;success
Asklepios Klinik Weißenfels;Naumburger Straße 76;6667 Weissenfels;Interdisziplinäre Intensivstation (S 1) Website;ST;hr-icon-yellow;hr-icon-red;hr-icon-unavailable;21.03.2020                                                  21:08;Naumburger Straße 76, Weißenfels, Germany;51.194738;11.956401;success
Helios-Kliniken Mittelweser;Ziegelkampstraße 39;31582 Nienburg;Website;NI;hr-icon-green;hr-icon-green;hr-icon-unavailable;22.03.2020                                                  10:48;Ziegelkampstraße 39, Nienburg (Weser), Germany;52.635505;9.223999;success
Klinikum Frankfurt Oder GmbH;Müllroser Chaussee  7;15236 Frankfurt/ Oder;63A+B Website;BB;hr-icon-red;hr-icon-green;hr-icon-unavailable;22.03.2020                                                  08:09;Müllroser Chaussee 7, Germany;52.302687;14.482179;success
Sana Kliniken Leipziger Land;Rudolf - Virchow-Str.  2;4552 Borna;Intensivstation  Website;SN;hr-icon-green;hr-icon-green;hr-icon-red;22.03.2020                                                  10:03;Borna, Germany;51.123548;12.499624;doubt
Lukaskrankenhaus Neuss;Preußenstraße 84;41464 Neuss;Pädiatrische Intensivstation Website;NRW;hr-icon-green;hr-icon-yellow;hr-icon-red;19.03.2020                                                  10:58;Preußenstraße 84, Neuss, Germany;51.191596;6.670237;success
Agaplesion Diakonieklinikum Rotenburg;Elise-Averdieck-Straße 17;27356 Rotenburg (Wümme);Website;NI;hr-icon-green;hr-icon-green;hr-icon-unavailable;22.03.2020                                                  10:18;Elise-Averdieck-Straße 17, Rotenburg (Wümme), Germany;53.105891;9.415342;success
Kliniken Essen-Mitte Ev. Krankenhaus Werden;Pattbergstrasse 1-3;45239 Essen;INTW Website;NRW;hr-icon-red;hr-icon-red;hr-icon-unavailable;22.03.2020                                                  09:08;Pattbergstraße 1-3, Essen, Germany;51.390011;7.005883;success
Pädiatrische Intensivstation Universitätskinderklinik Magdeburg ;Leipziger Straße  44;39120 Magdeburg;PAEI1 Website;ST;hr-icon-green;hr-icon-yellow;hr-icon-unavailable;19.03.2020                                                  10:54;Leipziger Straße 44, Magdeburg, Germany;52.103158;11.615504;success
Diakonie-Klinikum Stuttgart;Rosenbergstraße 38;70176 Stuttgart;Corona Intensiv/ IMC  Website;BW;hr-icon-yellow;hr-icon-red;hr-icon-unavailable;22.03.2020                                                  12:05;Rosenbergstraße, Stuttgart, Germany;48.78104;9.163865;doubt
Helios Klinik Köthen;Hallesche Straße 29;6366 Köthen;Intensivstation Website;ST;hr-icon-green;hr-icon-green;hr-icon-unavailable;20.03.2020                                                  11:15;Hallesche Straße 29, Köthen, Germany;51.746855;11.972467;success
Asklepios Klinik St. Georg, Hamburg ;Lohmühlenstraße  5;20099 Hamburg;E1/E3/F2 Website;HH;hr-icon-green;hr-icon-green;hr-icon-green;21.03.2020                                                  16:00;Lohmühlenstraße 5, Hamburg, Germany;53.559179;10.017328;success
Evangelisches Krankenhaus Königin Elisabeth Herzberge;Herzbergstraße  79;10365 Berlin;IC1 IC2 Website;BE;hr-icon-red;hr-icon-red;hr-icon-red;21.03.2020                                                  14:06;Herzbergstraße 79, Berlin, Germany;52.526398;13.506062;success
Lausitzer Seenland Klinikum GmbH;M.-Grollmuß-Str. 1;1936 Königsbrück;Intensivstation Website;SN;hr-icon-green;hr-icon-green;hr-icon-unavailable;22.03.2020                                                  10:35;Königsbrück, Germany;51.265451;13.903747;doubt
Katholisches Krankenhaus St. Johann Nepomuk Erfurt;Haarbergstraße 72;99097 Erfurt;Interdisziplinäre Intensivtherapiestation;TH;hr-icon-red;hr-icon-yellow;hr-icon-red;19.03.2020                                                  10:31;Haarbergstraße 72, Erfurt, Germany;50.947467;11.085341;success
Klinikum Konstanz - GLKN  ;Mainaustrasse  35;78464 Konstanz;Interdisziplinäre Intensivstation Website;BW;hr-icon-green;hr-icon-green;hr-icon-unavailable;21.03.2020                                                  18:47;Mainaustraße, Konstanz, Germany;47.673771;9.195184;doubt
Krankenhaus-Landshut-Achdorf;Achdorfer Weg  3;84036 Landshut;Intensivstation Website;BY;hr-icon-green;hr-icon-green;hr-icon-unavailable;21.03.2020                                                  15:27;Achdorfer Weg, Landshut, Germany;48.524066;12.148007;doubt
Sana Klinikum Hof, Eppenreuther Str. 9, 95932 Hof;Eppenreuther Str.   9;0 Hof;ITS Website;BY;hr-icon-red;hr-icon-red;hr-icon-unavailable;19.03.2020                                                  10:27;Hof, Germany;50.316424;11.918817;doubt
Klinikum Südstadt Rostock;Südring 81;18055 Rostock;Intensivbereich Website;MV;hr-icon-green;hr-icon-green;hr-icon-unavailable;21.03.2020                                                  22:20;Südring 81, Rostock, Germany;54.072167;12.108217;success
SANA Herzzentrum Dresden ;Fetscherstr. 76 ;1307 Dresden;Kardiologische Intensivstation Website;SN;hr-icon-yellow;hr-icon-green;hr-icon-green;22.03.2020                                                  09:21;Dresden, Germany;51.055604;13.731021;doubt
Klinik Eichstätt, Interdisziplinäre ITS;Ostenstr. 31;85072 Eichstätt;Intensivstation Website;BY;hr-icon-green;hr-icon-green;hr-icon-unavailable;22.03.2020                                                  11:24;Eichstätt, Germany;48.890105;11.190017;doubt
Marienkrankenhaus Hamburg;Alfredstraße  9;22087 Hamburg;Med Intensiv /Op Intensiv Website;HH;hr-icon-green;hr-icon-green;hr-icon-green;19.03.2020                                                  10:17;Alfredstraße 9, Hamburg, Germany;53.55933;10.031657;success
Sankt Gertrauden Krankhaus GmbH;Paretzer Straße 12;10713 Berlin;Station 05 Website;BE;hr-icon-green;hr-icon-red;hr-icon-unavailable;19.03.2020                                                  12:40;Paretzer Straße 12, Berlin, Germany;52.481215;13.317331;success
Harzklinikum Dorothea Christiane Erxleben QUEDLINBURG;Ditfurter Weg  24;3946 Quedlinburg;Intensivstation (03) Website;ST;hr-icon-green;hr-icon-green;hr-icon-unavailable;20.03.2020                                                  15:50;Ditfurter Weg 24d, Quedlinburg, Germany;51.796583;11.164248;success
Asklepios Klinikum Uckermark;Am Klinikum 1;16303 Schwedt;24 Website;BB;hr-icon-yellow;hr-icon-yellow;hr-icon-unavailable;19.03.2020                                                  11:47;Am Klinikum 1, Jena, Germany;50.884572;11.620658;success
Paracelsus Klinik Henstedt-Ulzburg;Wilstedter Straße 134;24558 Henstedt-Ulzburg;interdisziplinäre Intensivstation Website;SH;hr-icon-green;hr-icon-green;hr-icon-unavailable;21.03.2020                                                  13:41;Wilstedter Straße 134, Henstedt-Ulzburg, Germany;53.749066;10.007538;success
Verbundkrankenhaus Bernkastel/Wittlich;Koblenzerstr. 91;54516 Wittlich;Intensivstation Website;RP;hr-icon-green;hr-icon-green;hr-icon-red;19.03.2020                                                  10:04;Wittlich, Germany;49.984403;6.895631;doubt
Krankenhaus Wittmund gGmbH;Dohuser Weg 10;26409 Wittmund;Intensivstation Website;NI;hr-icon-green;hr-icon-green;hr-icon-red;21.03.2020                                                  09:01;Dohuser Weg 10, Wittmund, Germany;53.571992;7.788269;success
DRK Kliniken Berlin Köpenick;Salvador-Allende-Straße 2-8;12559 Berlin;ITS Website;BE;hr-icon-green;hr-icon-green;hr-icon-unavailable;20.03.2020                                                  17:29;Salvador-Allende-Straße 2-8, Berlin, Germany;52.440278;13.595497;success
St. Sixtus-Hospital;Gartenstr.  2;45721 Haltern am See;Intensivstation Website;NRW;hr-icon-green;hr-icon-green;hr-icon-unavailable;20.03.2020                                                  16:44;Haltern am See, Germany;51.743302;7.180898;doubt
Schwarzwald-Baar-Klinikum;Klinikstr.  11;78052 Villingen-Schwenningen;Station 11 Website;BW;hr-icon-green;hr-icon-green;hr-icon-unavailable;21.03.2020                                                  08:26;Villingen-Schwenningen, Germany;48.064962;8.45318;doubt
Kreisklinik St. Elisabeth;Ziegelstr. 38;89407 Dillingen an der Donau;Intensivstation Website;BY;hr-icon-green;hr-icon-green;hr-icon-unavailable;22.03.2020                                                  09:27;Dillingen a.d. Donau, Germany;48.580884;10.49769;doubt
Asklepios Kliniken Schildautal Seesen;Karl-Herold-Straße 1;38723 Seesen;Station 41 Website;NI;hr-icon-yellow;hr-icon-yellow;hr-icon-unavailable;22.03.2020                                                  09:36;Karl-Herold-Straße 1, Seesen, Germany;51.88298;10.216295;success
Diakoneo Klinik Schwabach;Regelsbacher Straße  7;91126 Schwabach;Interdisziplinäre Intensivstation Website;BY;hr-icon-green;hr-icon-green;hr-icon-unavailable;22.03.2020                                                  08:51;Regelsbacher Straße 7, Schwabach, Germany;49.332313;11.012438;success
Krankenhäuser Landkreis Freudenstadt;Karl-von-Hahn-Straße 120;72250 Freudenstadt;Interdisziplinäre Intensivstation Website;BW;hr-icon-green;hr-icon-green;hr-icon-unavailable;21.03.2020                                                  21:16;Karl-von-Hahn-Straße, Freudenstadt, Germany;48.473122;8.406666;doubt
Diakoniekrankenhaus Halle gGmbH;Mühlweg  7;6114 Halle;ITS Website;ST;hr-icon-yellow;hr-icon-yellow;hr-icon-unavailable;22.03.2020                                                  10:02;Mühlweg 7, Halle, Germany;51.49405;11.959651;success
Siloah St. Trudpert Klinikum;Wilferdingerstr. 67;75179 Pforzheim;Intensivstation Website;BW;hr-icon-green;hr-icon-green;hr-icon-red;22.03.2020                                                  10:28;Pforzheim, Germany;48.890549;8.688956;doubt
St. Bernhard-Hospital Kamp-Lintfort GmbH;Bürgermeister-Schmelzing-Straße 90;47475 Kamp-Lintfort;Intensivstation Website;NRW;hr-icon-green;hr-icon-green;hr-icon-unavailable;22.03.2020                                                  09:21;Bürgermeister-Schmelzing-Straße 90c, Kamp-Lintfort, Germany;51.493614;6.517152;success
Krankenhaus Spremberg;Karl Marx Strasse 80;3130 Spremberg;IMC Website;BB;hr-icon-yellow;hr-icon-green;hr-icon-unavailable;22.03.2020                                                  09:31;Spremberg, Germany;51.566691;14.368594;doubt
Herz-Kreislauf-Zentrum Klinikum Hersfeld-Rotenburg GmbH;Heinz-Meise-Str.  100;36199 Rotenburg an der Fulda;C-ITS Website;HE;hr-icon-red;hr-icon-green;hr-icon-yellow;19.03.2020                                                  09:33;Rotenburg a.d. Fulda, Germany;50.997152;9.734938;doubt
Klinikum Dritter Orden München;Menzinger Straße 44;80638 München;Website;BY;hr-icon-red;hr-icon-yellow;hr-icon-unavailable;20.03.2020                                                  11:42;Menzinger Straße 44, Munich, Germany;48.165375;11.504855;success
Wertachklinik Schwabmünchen;Weidenhartstr.  35;86830 Schwabmünchen;ITS / IMC Website;BY;hr-icon-green;hr-icon-green;hr-icon-unavailable;22.03.2020                                                  08:32;Schwabmünchen, Germany;48.180426;10.759851;doubt
Asklepios Schloßbergklinik Bad König;Frankfurterstr.  33;64732 Bad König;Website;HE;hr-icon-red;hr-icon-green;hr-icon-red;19.03.2020                                                  09:22;Bad König, Germany;49.742888;9.006145;doubt
DRK Krankenhaus Teterow;Goethestraße 14;17166 Teterow;ITS Website;MV;hr-icon-red;hr-icon-yellow;hr-icon-red;20.03.2020                                                  07:49;Goethestraße 14, Teterow, Germany;53.777407;12.570457;success
Krankenhaus Eichhof ;Eichhofstraße  1;36341 Lauterbach;Intensivstation Website;HE;hr-icon-green;hr-icon-green;hr-icon-red;22.03.2020                                                  02:48;Lauterbach (Hessen), Germany;50.635033;9.399148;doubt
Florence-Nightingale-Krankenhaus Kinderklinik;Kreuzbergstraße 79;40489 Düsseldorf;Kinderintensivstation Website;NRW;hr-icon-green;hr-icon-yellow;hr-icon-unavailable;22.03.2020                                                  11:04;Kreuzbergstraße 79, Dusseldorf, Germany;51.301288;6.748923;success
Krankenhaus Bethanien für die Grafschaft Moers;Bethanienstr. 21;47441 Moers;Interdisziplinäre Intensivstation Website;NRW;hr-icon-green;hr-icon-green;hr-icon-unavailable;22.03.2020                                                  12:42;Moers, Germany;51.455116;6.63761;doubt
Marienkrankenhaus Soest, Widumgasse 5, 59494 Soest;Widumgasse 5;59494 Soest;ITS Website;NRW;hr-icon-green;hr-icon-green;hr-icon-red;19.03.2020                                                  09:13;Widumgasse 5, Soest, Germany;51.574778;8.112013;success
DRK Krankenhaus Rabenstein;Unritzstrasse  23;9117 Chemnitz;Intensivstation;SN;hr-icon-green;hr-icon-green;hr-icon-red;19.03.2020                                                  09:38;Unritzstraße 23, Chemnitz, Germany;50.821884;12.825735;success
Malteser Krankenhaus St. Josefshospital Uerdingen, 47829 Krefeld, Kurfürstenstr. 69;Kurfürstenstr.  69;47829 Krefeld;Intensiv Website;NRW;hr-icon-green;hr-icon-green;hr-icon-unavailable;22.03.2020                                                  11:05;Krefeld, Germany;51.337869;6.585484;doubt
Asklepios Klinik Lich;Goethestr.  4;35423 Lich;2C Website;HE;hr-icon-green;hr-icon-green;hr-icon-unavailable;22.03.2020                                                  08:59;Lich, Germany;50.521056;8.810262;doubt
Sana Krankenhaus Templin;Robert-Koch-Str. 24;17268 Templin;Website;BB;hr-icon-yellow;hr-icon-red;hr-icon-unavailable;22.03.2020                                                  11:39;Templin, Germany;53.115846;13.500864;doubt
Städtisches Krankenhaus Pirmasens;Pettenkoferstr.  22;66955 Pirmasens;Intensivstation Website;RP;hr-icon-green;hr-icon-green;hr-icon-unavailable;21.03.2020                                                  20:51;Pirmasens, Germany;49.203633;7.601581;doubt
Klinik Augustinum;Wolkerweg 16;81375 München;Intensivstation 7;BY;hr-icon-green;hr-icon-green;hr-icon-unavailable;20.03.2020                                                  08:04;Wolkerweg 16, Munich, Germany;48.122857;11.490402;success
Sana Krankenhaus Gerresheim;Gräulinger Str. 120;40625 Düsseldorf;ITS Website;NRW;hr-icon-yellow;hr-icon-green;hr-icon-unavailable;22.03.2020                                                  09:06;Dusseldorf, Germany;51.226297;6.801324;doubt
Stiftungsklinikum Proselis Standort St. Elisabeth Hospital Herten;Im Schloßpark 12;45699 Herten;interdiszipl. Intensivstation Website;NRW;hr-icon-green;hr-icon-green;hr-icon-unavailable;21.03.2020                                                  12:01;Im Schloßpark 12, Herten, Germany;51.59209;7.124818;success
Sanaklinik Biberach;Ziegelhausstraße  50;88400 Biberach;Intensivstation Website;BW;hr-icon-yellow;hr-icon-green;hr-icon-unavailable;20.03.2020                                                  08:57;Ziegelhausstraße, Biberach an der Riss, Germany;48.097837;9.77161;doubt
Evangelisches Krankenhaus Kalk in Köln (EVKK);Buchforststr 2;51103 Köln;Website;NRW;hr-icon-green;hr-icon-green;hr-icon-red;22.03.2020                                                  11:53;Buchforststr. 2, Cologne, Germany;50.941229;7.009315;success
Agaplesion ev. Klinikum Schaumburg;Zum Schaumburger Klinikum  1;31683 Obernkirchen;W 11 + W 13 Website;NI;hr-icon-yellow;hr-icon-yellow;hr-icon-unavailable;20.03.2020                                                  09:45;Twegte 1, Obernkirchen, Germany;52.271145;9.131364;doubt
Ostalbklinikum Aalen;Im Kälblesrain  1;73430 Aalen;25 Website;BW;hr-icon-green;hr-icon-green;hr-icon-unavailable;19.03.2020                                                  08:36;Im Kälblesrain 1, Aalen, Germany;48.848211;10.084984;success
KMG Klinikum Luckenwalde;Saarstrasse  1;14943 Luckenwalde;ITS Website;BB;hr-icon-yellow;hr-icon-yellow;hr-icon-unavailable;22.03.2020                                                  10:02;Saarstraße 1, Luckenwalde, Germany;52.099744;13.180533;success
Lungenclinic Großhansdorf;Wöhrendamm  80;22927 Großhansdorf;Intensivstation (Station 1) Website;SH;hr-icon-red;hr-icon-red;hr-icon-unavailable;22.03.2020                                                  10:40;Wöhrendamm, Großhansdorf, Germany;53.65158;10.286077;doubt
EvK Herne, Bst. Eickel, Thoraxzentrum Ruhrgebiet;Hordeler Strasse 7-9;44651 Herne;Intensivstation Website;NRW;hr-icon-green;hr-icon-green;hr-icon-unavailable;22.03.2020                                                  08:32;Hordeler Straße 7 - 9, Herne, Germany;51.510562;7.175439;success
Sana-Krankenhaus Rügen GmbH;Calandstr. 7/8;18528 Bergen;Interdisziplinäre Intensivstation Website;MV;hr-icon-red;hr-icon-green;hr-icon-unavailable;20.03.2020                                                  11:39;Bergen, Norway;60.354965;5.302935;doubt
St. Marien-Krankenhaus Berlin;Gallwitzallee  123-143;12249 Berlin;Interdisziplinäre Intensivstation Website;BE;hr-icon-green;hr-icon-green;hr-icon-unavailable;22.03.2020                                                  10:52;Gallwitzallee 123-143, Berlin, Germany;52.424203;13.349156;success
Klinikzentrum Westerstede;Lange Straße 38;26655 Westerstede;Operative Intensivstation Website;NI;hr-icon-red;hr-icon-green;hr-icon-unavailable;22.03.2020                                                  09:35;Lange Straße 38, Westerstede, Germany;53.258549;7.917363;success
Asklepios Nordseeklinik Westerland/ Sylt;Norderstraße 81;25980 Sylt/ OT Westerland;Intensiv Website;SH;hr-icon-green;hr-icon-green;hr-icon-red;19.03.2020                                                  07:51;Norderstraße 81a, Westerland, Germany;54.924446;8.314026;success
RKU - Universitäts- und Rehabilitationskliniken Ulm gGmbH;Oberer Eselbserg 45;89081 Ulm;Intensivstation Website;BW;hr-icon-yellow;hr-icon-green;hr-icon-unavailable;22.03.2020                                                  07:52;Ulm, Germany;48.396637;9.964547;doubt
BG - Unfallklinik Murnau;Prof. Küntscher Straße ;82418 Murnau;Interdisziplinäre Intensivmedizin Website;BY;hr-icon-green;hr-icon-green;hr-icon-green;22.03.2020                                                  11:35;Murnau a. Staffelsee, Germany;47.677497;11.19895;doubt
DRK Krankenhaus Lichtenstein Gemeinnützige GmbH;Hartensteiner Str. 42;9350 Lichtenstein/ Sa.;ITS Website;SN;hr-icon-green;hr-icon-green;hr-icon-unavailable;22.03.2020                                                  11:18;Saudi Arabia;23.806678;44.700847;doubt
Asklepios Klinik Bad Oldesloe;Schützenstraße  55;23843 Bad Oldsloe;B2 Website;SH;hr-icon-yellow;hr-icon-yellow;hr-icon-unavailable;21.03.2020                                                  18:37;Schützenstraße 55a, Kassel, Germany;51.32002;9.518685;success
GKH Herdecke gGmbH;Gerhard-Kienle-Weg  4;58313 Herdecke;4E Website;NRW;hr-icon-green;hr-icon-green;hr-icon-red;19.03.2020                                                  15:59;Herdecke, Germany;51.402887;7.434144;doubt
Schwarzwald-Baar Klinikum;Klinikstraße  11;78052 Villingen-Schwenningen;Intensiv 12-15, DS24 Website;BW;hr-icon-green;hr-icon-green;hr-icon-green;19.03.2020                                                  19:36;Villingen-Schwenningen, Germany;48.064962;8.45318;doubt
St. Josefs-Hospital Wiesbaden;Beethovenstr.  20;65189 Wiesbaden;Station 31/32 Website;HE;hr-icon-green;hr-icon-green;hr-icon-yellow;22.03.2020                                                  09:04;Wiesbaden, Germany;50.067275;8.231418;doubt
Helios Klinik Herzberg und Osterode;Dr.-Frössel-Allee 1;37412 Herzberg;Intensivstation Website;NI;hr-icon-green;hr-icon-green;hr-icon-unavailable;22.03.2020                                                  11:40;Dr.-Frössel-Allee, Herzberg am Harz, Germany;51.669918;10.342504;doubt
Sana Herzchirurgie Stuttgart;Herdweg 2;70174 Stuttgart;Intensivstation Website;BW;hr-icon-green;hr-icon-green;hr-icon-green;21.03.2020                                                  10:22;Herdweg 2, Stuttgart, Germany;48.78302;9.170902;success
Rotkreuzklinik Lindenberg gGmbH;Dr. Otto-Gessler-Platz  1;88161 Lindenberg;Interdisziplinäre Intensivstation Website;BY;hr-icon-green;hr-icon-green;hr-icon-unavailable;19.03.2020                                                  21:13;Lindenberg, Germany;49.379633;8.09575;doubt
Zentrum für Intensiv- und Notfallmedizin, Klinikum Saarbrücken;Winterberg  1;66119 Saarbrücken;ZIN 10, ZIN 43, COBAZ 1 Website;SL;hr-icon-green;hr-icon-green;hr-icon-green;22.03.2020                                                  10:05;Winterberg 1, Saarbrücken, Germany;49.221577;6.997479;success
Universitätsmedizin Rostock - Internistische Intensivstation;Schillingallee 35;18057 Rostock;Internistische Intensivstation Website;MV;hr-icon-green;hr-icon-green;hr-icon-green;19.03.2020                                                  14:37;Schillingallee 35, Rostock, Germany;54.085046;12.101097;success
Kreiskrankenhaus Schrobenhausen GmbH;Högenauer Weg 5;86529 Schrobenhausen;Interdisziplinäre Intensivstation (S2) Website;BY;hr-icon-green;hr-icon-yellow;hr-icon-unavailable;22.03.2020                                                  12:01;Högenauer Weg 5a, Schrobenhausen, Germany;48.572552;11.26302;success
Klinikum-Bremen-Ost;Züricher Straße  40;28325 Bremen;Interdisziplinäre Intensivstation Website;HB;hr-icon-yellow;hr-icon-red;hr-icon-unavailable;21.03.2020                                                  11:22;Züricher Straße 40, Bremen, Germany;53.064176;8.940874;success
Klinikum Merzig;Triererstraße  148;66663 Merzig;Intensivstation Website;SL;hr-icon-red;hr-icon-green;hr-icon-red;20.03.2020                                                  14:34;Merzig, Germany;49.465511;6.620629;doubt
Kreiskrankenhaus Weilburg;Am Steinbühl 2;35781 Weilburg;Interdisziplinäre Intensivstation Website;HE;hr-icon-yellow;hr-icon-yellow;hr-icon-unavailable;22.03.2020                                                  10:19;Weilburg, Germany;50.484503;8.269093;doubt
Katholisches Klinikum Koblenz-Montabaur;Rudolf-virchow-str. 3;56073 Koblenz;Interdiziplinäre Intensivstation Website;RP;hr-icon-green;hr-icon-green;hr-icon-green;22.03.2020                                                  13:23;Koblenz, Germany;50.355975;7.592158;doubt
Landkreis Mittweida Krankenhaus gGmbH;Hainichener Straße 4-6;9648 Mittweida;Interdisziplinäre Intensivstation Website;SN;hr-icon-green;hr-icon-green;hr-icon-unavailable;22.03.2020                                                  10:15;Hainichener Straße 4 - 6, Mittweida, Germany;50.981093;12.984496;success
Zeisigwaldkliniken Bethanien Chemnitz im Verbund der Agaplesion;Zeisigwaldstraße  101;9130 Chemnitz;Interdisziplinäre ITS/ IMC Website;SN;hr-icon-green;hr-icon-green;hr-icon-unavailable;20.03.2020                                                  10:56;Zeisigwaldstraße 101, Chemnitz, Germany;50.839585;12.963104;success
Kreiskliniken Günzburg-Krumbach, Klinik Krumbach;Mindelheimer-Str. 69;86381 Krumbach;Station 8 (ITS) Website;BY;hr-icon-red;hr-icon-green;hr-icon-unavailable;22.03.2020                                                  11:54;Krumbach (Schwaben), Germany;48.245431;10.362136;doubt
Klinikum Esslingen;Hirschlandstrasse 97;73730 Esslingen am Neckar;i53 und i12 Website;BW;hr-icon-yellow;hr-icon-green;hr-icon-green;20.03.2020                                                  21:46;Hirschlandstraße 97, Esslingen am Neckar, Germany;48.737162;9.326289;success
Bundeswehrkrankenhaus Hamburg ;Lesserstraße  180;22049 Hamburg;1.1, 1.2;HH;hr-icon-green;hr-icon-green;hr-icon-yellow;18.03.2020                                                  20:11;Lesserstraße 180 a, Hamburg, Germany;53.594522;10.079714;success
DRK Kliniken Nordhessen;Hansteinstr.  29;34121 Kassel;INT und CoViD-INT Website;HE;hr-icon-green;hr-icon-green;hr-icon-unavailable;18.03.2020                                                  19:10;Kassel, Germany;51.309934;9.47572;doubt
Kreiskrankenhaus Freiberg gGmbH;Donatsring 20;9599 Freiberg;Station 16 Website;SN;hr-icon-green;hr-icon-green;hr-icon-unavailable;22.03.2020                                                  10:32;Donatsring 20, Freiberg, Germany;50.920535;13.351387;success
St. Josef Krankenhaus GmbH Moers;Asberger Straße 4;47441 Moers;Interdisziplinäre Intensivstation Website;NRW;hr-icon-red;hr-icon-green;hr-icon-unavailable;22.03.2020                                                  08:07;Asberger Straße 4, Moers, Germany;51.445814;6.640616;success
DRK-Krankenhaus Biedenkopf;Hainstrasse 71-75;35216 Biedenkopf;Intensivstation;HE;hr-icon-red;hr-icon-yellow;hr-icon-unavailable;18.03.2020                                                  18:33;Hainstraße, Biedenkopf, Germany;50.914637;8.522319;doubt
Asklepios Harzkliniken Goslar;Kösliner Str. 12;38642 Goslar;Interdisziplinäre Intensivstation 33;NI;hr-icon-green;hr-icon-red;hr-icon-red;18.03.2020                                                  18:18;Goslar, Germany;51.914082;10.428213;doubt
Agaplesion Diakonieklinikum Rotenburg ;Elise Averdieck Straße  17;27356 Rotenburg;17 Website;NI;hr-icon-green;hr-icon-yellow;hr-icon-unavailable;18.03.2020                                                  18:17;Rotenburg (Wümme), Germany;53.11113;9.412534;doubt
Krankenhaus St.Joseph-Stift Bremen;Schwachhauser Heerstr. 54;28209 Bremen;Interdisziplinäre Intensivmedizin Website;HB;hr-icon-green;hr-icon-green;hr-icon-unavailable;21.03.2020                                                  09:48;Bremen, Germany;53.029599;8.731851;doubt
Klinik für Anästhesiologie m. S. operative Intensivmedizin, Charité Campus Benjamin Franklin;Hindenburgdamm  30;10245 Berlin;44i Website;BE;hr-icon-green;hr-icon-green;hr-icon-green;20.03.2020                                                  11:09;Hindenburgdamm 30A, Berlin, Germany;52.441069;13.316676;success
Hessenklinik Stadtkrankenhaus Korbach gGmbH;Enserstrasse 19;34497 Korbach;14 Website;HE;hr-icon-green;hr-icon-green;hr-icon-unavailable;18.03.2020                                                  17:27;Korbach, Germany;51.272377;8.8738;doubt
Marienhospital Stuttgart Vinzenz von Paul Kliniken GmbH;Böheimstraße 37;70199 Stuttgart;Internistische Intensivstation M2ib Website;BW;hr-icon-yellow;hr-icon-green;hr-icon-unavailable;19.03.2020                                                  14:00;Böheimstraße 37, Stuttgart, Germany;48.76099;9.16348;success
Albertinen-Krankenhaus ;Süntelstraße 11a;22457 Hamburg;C2 Website;HH;hr-icon-green;hr-icon-green;hr-icon-green;21.03.2020                                                  21:53;Süntelstraße 11a, Hamburg, Germany;53.631433;9.905499;success
HGH Bensheim;Rodensteinstrasse 94;64625 Bensheim;Intensivstation;HE;hr-icon-green;hr-icon-green;hr-icon-unavailable;20.03.2020                                                  07:19;Rodensteinstraße 94, Bensheim, Germany;49.678579;8.620396;success
St. Josefs- Hospital Rheingau;Eibinger Straße 9;65385 Rüdesheim;Intensivstation Website;HE;hr-icon-green;hr-icon-green;hr-icon-unavailable;21.03.2020                                                  18:20;Eibinger Straße 9, Rüdesheim am Rhein, Germany;49.983128;7.926377;success
Asklepios Klinik Burglengenfeld;Dr. Sauerbruchstrasse 1;93133 Burglengenfeld;ITS Website;BY;hr-icon-green;hr-icon-green;hr-icon-yellow;22.03.2020                                                  13:03;Burglengenfeld, Germany;49.201487;12.039464;doubt
Sana Kliniken Lübeck;Kronsforder Allee 71-73;23560 Lübeck;Intensivstation Website;SH;hr-icon-red;hr-icon-green;hr-icon-unavailable;22.03.2020                                                  10:49;Kronsforder Allee 71-73, Lübeck, Germany;53.849292;10.686773;success
St-Johannes-Hospital Dortmund;Johannesstrasse 9-17;44139 Dortmund;MIV/IPE/OIS/G1 Website;NRW;hr-icon-green;hr-icon-green;hr-icon-green;22.03.2020                                                  09:27;Johannesstraße, Dortmund, Germany;51.510662;7.457392;doubt
Elbeklinikum Stade;Bremervörder Str. 111;21682 Stade;INTENSIVSTATION;NI;hr-icon-green;hr-icon-green;hr-icon-red;19.03.2020                                                  09:17;Stadiums, Philadelphia, PA, USA;39.904185;-75.168384;doubt
Klinikum Stuttgart;Kriegsbergstrasse  60;70174 Stuttgart;Website;BW;hr-icon-yellow;hr-icon-green;hr-icon-yellow;22.03.2020                                                  10:08;Kriegsbergstraße 60, Stuttgart, Germany;48.783762;9.171674;success
Johanniter GmbH - Ev. Krankenhaus Bethesda Mönchengladbach;Ludwig-Weber-Str. 15;41061 Mönchengladbach;Website;NRW;hr-icon-green;hr-icon-green;hr-icon-red;20.03.2020                                                  10:05;Mönchengladbach, Germany;51.1821;6.428687;doubt
Universitätsklinikum Freiburg;Hugstetter Straße 55;79106 Freiburg;Website;BW;hr-icon-green;hr-icon-green;hr-icon-green;20.03.2020                                                  14:22;Hugstetter Straße 55, Freiburg im Breisgau, Germany;48.005626;7.841779;success
Fachkrankenhaus Coswig GmbH;Neucoswiger Str.  21;1640 Coswig;D-1 Website;SN;hr-icon-green;hr-icon-green;hr-icon-green;21.03.2020                                                  19:27;Coswig, Germany;51.126349;13.586768;doubt
Klinikum Oldenburg AöR;Rahel-Straus-Strasse 10;26133 Oldenburg;Operative Intensivmedizin  Website;NI;hr-icon-green;hr-icon-green;hr-icon-green;22.03.2020                                                  12:16;Rahel-Straus-Straße 10a, Oldenburg, Germany;53.111071;8.217105;success
Universitätsklinikum Gießen und Marburg, Standort Gießen;Rudolf-Buchheim-Straße  8;35392 Gießen;Website;HE;hr-icon-green;hr-icon-green;hr-icon-green;20.03.2020                                                  20:47;Rudolf-Buchheim-Straße, Giessen, Germany;50.576806;8.665144;doubt
Wertachklinik Bobingen;Wertachstr. 55;86399 Bobingen;Intensiv Website;BY;hr-icon-green;hr-icon-green;hr-icon-unavailable;20.03.2020                                                  17:02;Bobingen, Germany;48.27077;10.833833;doubt
Malteser Krankenhaus Kamenz;Nebelschützer Strasse 40;1917 Kamenz;Intensivstation;SN;hr-icon-green;hr-icon-green;hr-icon-unavailable;19.03.2020                                                  12:51;Kamenz, Germany;51.277427;14.104909;doubt
Universitätsklinikum Halle (Saale);Ernst-Grube-Straße  40;6120 Halle (Saale);I1 Innere Medizin Intensiv Website;ST;hr-icon-green;hr-icon-green;hr-icon-green;19.03.2020                                                  10:45;Ernst-Grube-Straße 40, Halle, Germany;51.501972;11.935968;success
Klinik Neuendettelsau;Heilsbronner Straße  44;91564 Neuendettelsau;Intensivstation Website;BY;hr-icon-green;hr-icon-green;hr-icon-unavailable;18.03.2020                                                  15:08;Heilsbronner Straße 44, Neuendettelsau, Germany;49.293523;10.792446;success
Marienhospital Stuttgart;Böheimstraße 37;70199 Stuttgart;Operative Intensivstation M2ia Website;BW;hr-icon-green;hr-icon-green;hr-icon-unavailable;22.03.2020                                                  12:57;Böheimstraße 37, Stuttgart, Germany;48.76099;9.16348;success
Helios Klinikum Berlin-Buch;Schwanebecker Chaussee  50;13125 Berlin;C1-11 Website;BE;hr-icon-green;hr-icon-green;hr-icon-green;21.03.2020                                                  10:53;Schwanebecker Chaussee 50, Berlin, Germany;52.631388;13.511225;success
Krankenhaus Mecklenburg Strelitz;Penzliner Str  56;17235 Neustrelitz;ITS Website;MV;hr-icon-green;hr-icon-green;hr-icon-red;19.03.2020                                                  13:40;Neustrelitz, Germany;53.36066;13.076045;doubt
Klinikum Idar-Oberstein;Dr.-Ottmar-Kohler-Str. 2;55743 Idar-Oberstein;St. 22 und St. 16 Website;RP;hr-icon-green;hr-icon-green;hr-icon-unavailable;22.03.2020                                                  08:49;Idar-Oberstein, Germany;49.722558;7.331719;doubt
Neonatologie Klinikum Altenburger Land;Am Waldessaum 10;4600 Altenburg;01 Website;TH;hr-icon-green;hr-icon-yellow;hr-icon-unavailable;22.03.2020                                                  10:21;Am Waldessaum 10, Altenburg, Germany;50.972433;12.44031;success
Asklepios Lungenfachklinik München-Gauting;Robert-Koch-Allee 2;82131 Gauting;Intensivstation Website;BY;hr-icon-green;hr-icon-green;hr-icon-unavailable;20.03.2020                                                  15:00;Gauting, Germany;48.070922;11.37745;doubt
Vivantes Klinikum Neukölln;Rudower Str.  48;12351 Berlin;ITS 1 Website;BE;hr-icon-green;hr-icon-green;hr-icon-red;18.03.2020                                                  14:36;Berlin, Germany;52.52045;13.40732;doubt
Ev. Krankenhaus Oberhausen;Virchowstr. 20;46047 Oberhausen;Intensiv A + B Website;NRW;hr-icon-green;hr-icon-green;hr-icon-unavailable;22.03.2020                                                  09:36;Oberhausen, Germany;51.498071;6.862345;doubt
Klinikum Bayreuth GmbH;Preuschwitzer Str.  101;95445 Bayreuth;Operative Intensivstation 18 Website;BY;hr-icon-green;hr-icon-green;hr-icon-green;20.03.2020                                                  20:45;Bayreuth, Germany;49.945412;11.584207;doubt
Klinikum Oberlausitzer Bergland gGmbH;Görlitzer Str. 8;2763 Zittau;ITS Website;SN;hr-icon-green;hr-icon-green;hr-icon-red;22.03.2020                                                  06:46;Zittau, Germany;50.897042;14.808062;doubt
Asklepios Klinik Langen;Röntgenstrasse  20;63225 Langen;Interdisziplinäre Intensivmedizin Website;HE;hr-icon-green;hr-icon-green;hr-icon-green;22.03.2020                                                  08:56;Röntgenstraße, Langen (Hessen), Germany;50.000303;8.682065;doubt
Sana Krankenhaus Radevormwald;Siepenstr.  33;42477 Radevormwald;ITS Website;NRW;hr-icon-green;hr-icon-green;hr-icon-unavailable;22.03.2020                                                  10:56;Radevormwald, Germany;51.201482;7.355663;doubt
Hegau-Bodensee-Klinikum (HBK) - Standort Singen;Virchowstr. 10;78224 Singen;Intensivstationen Website;BW;hr-icon-green;hr-icon-green;hr-icon-unavailable;21.03.2020                                                  12:28;Singen (Hohentwiel), Germany;47.757754;8.848676;doubt
Klinikum Dortmund gGmbH, KLZ Nord, Station ND1;Münsterstraße  240;44145 Dortmund;ND1 Website;NRW;hr-icon-red;hr-icon-red;hr-icon-red;18.03.2020                                                  13:35;Münsterstraße 240, Dortmund, Germany;51.534569;7.455317;success
Ruppiner Kliniken;Fehrbelliner Straße 38;16816 Neuruppin;X2 Website;BB;hr-icon-yellow;hr-icon-green;hr-icon-unavailable;21.03.2020                                                  23:30;Fehrbelliner Straße 38, Neuruppin, Germany;52.904764;12.797619;success
Kliniken HochFranken;Hofer Straße 40;95213 Münchberg;Münchberg Station 1A Naila Station O2 Website;BY;hr-icon-yellow;hr-icon-green;hr-icon-unavailable;22.03.2020                                                  07:44;Hofer Straße 40, Münchberg, Germany;50.1951;11.793817;success
Klinikum Dortmund gGmbH;Beurhausstr.  40;44137 Dortmund;Intensivstation Erwachsene Website;NRW;hr-icon-green;hr-icon-green;hr-icon-green;22.03.2020                                                  09:34;Dortmund, Germany;51.507849;7.479247;doubt
Kliniken Dritter Orden - Standort Kinderklinik Passau;Bischof-Altmann-Straße 9;94032 Passau;PICU Website;BY;hr-icon-green;hr-icon-green;hr-icon-unavailable;20.03.2020                                                  22:36;Bischof-Altmann-Straße 9, Passau, Germany;48.566448;13.446219;success
Sankt Marien Krankenhaus Ratingen;Werdener Strasse 3;40878 Ratingen;Intensivstation Website;NRW;hr-icon-green;hr-icon-green;hr-icon-unavailable;22.03.2020                                                  11:50;Werdener Straße 3, Ratingen, Germany;51.300602;6.852117;success
Bethesda Krankenhaus Bergedorf;Glindersweg 80;21029 Hamburg;Intensivstation Website;HH;hr-icon-green;hr-icon-yellow;hr-icon-unavailable;21.03.2020                                                  14:36;Glindersweg 80b, Hamburg, Germany;53.485834;10.237482;success
Lungenklinik Hemer;Theo-Funccius-Str. 1;58675 Hemer;Website;NRW;hr-icon-green;hr-icon-green;hr-icon-yellow;19.03.2020                                                  08:15;Hemer, Germany;51.38753;7.769291;doubt
Gemeinschaftskrankenhaus Havelhöhe;Kladower Damm 221;14089 Berlin;1/2 Website;BE;hr-icon-green;hr-icon-green;hr-icon-green;22.03.2020                                                  13:06;Kladower Damm 221, Berlin, Germany;52.462663;13.159004;success
AGAPLESION DIAKONIE KLINIKEN KASSEL gGmbH;Herkulesstrasse  34;34119 Kassel;Intensivstation Website;HE;hr-icon-green;hr-icon-green;hr-icon-red;21.03.2020                                                  11:33;Herkulesstraße 34a, Kassel, Germany;51.314018;9.462086;success
Asklepiosklinik Wandsbek, Hamburg;Alphonsstrasse 14;22043 Hamburg;Interdisz. Intensivstation B1-West Website;HH;hr-icon-green;hr-icon-green;hr-icon-unavailable;22.03.2020                                                  09:52;Alphonsstraße 14, Hamburg, Germany;53.570149;10.088617;success
Klinik Rotes Kreuz Frankfurt/ Main;Königswarter-Str.  16;60316 Frankfurt;Intensivstation Website;HE;hr-icon-green;hr-icon-green;hr-icon-red;21.03.2020                                                  11:41;Frankfurt, Germany;50.041821;8.584764;doubt
Klinikum Lichtenfels;Prof.-Arneth-Str. 2b;96215 Lichtenfels;ICU/ IMC Website;BY;hr-icon-red;hr-icon-yellow;hr-icon-red;22.03.2020                                                  10:24;Lichtenfels, Germany;50.144572;11.064719;doubt
Ev. Waldkrankenhaus Spandau;Stadtrandstrasse 555;13589 Berlin;14A, 14B Website;BE;hr-icon-green;hr-icon-green;hr-icon-unavailable;20.03.2020                                                  10:26;Stadtrandstraße 555, Berlin, Germany;52.562999;13.156943;success
Krankenhaus Rummelsberg GmbH Schwarzenbruck b. Nürnberg - Sana AG;Rummelsberg  71;90592 Schwarzenbruck;Intensivstation und Intermediate-Care Website;BY;hr-icon-green;hr-icon-green;hr-icon-unavailable;21.03.2020                                                  06:48;Rummelsberg 71, Schwarzenbruck, Germany;49.361977;11.264081;success
Helios Hanseklinikum Stralsund;Große Parower Straße 47-53;18435 Stralsund;Interdisziplinäre Intensivstation Website;MV;hr-icon-green;hr-icon-green;hr-icon-green;22.03.2020                                                  13:17;Große Parower Straße, Stralsund, Germany;54.332663;13.077165;doubt
Kliniken Beelitz GmbH / Fachkrankenhaus für Neurologische Frührehabilitation;Paracelsusring  6a;14547 Beelitz-Heilstätten;Beatmungsstation FW Website;BB;hr-icon-red;hr-icon-yellow;hr-icon-unavailable;19.03.2020                                                  14:48;Beelitz, Germany;52.235744;12.976561;doubt
Klinikum Heidenheim;Schlosshaustraße  100;89522 Heidenheim;ZFI, Station C3 Website;BW;hr-icon-green;hr-icon-green;hr-icon-unavailable;20.03.2020                                                  11:17;Schloßhaustraße 100, Heidenheim, Germany;48.672352;10.141665;success
SRH Zentralklinikum Suhl;Albert Schweitzer Str.  2;98527 Suhl;S44 Intensiv Website;TH;hr-icon-green;hr-icon-green;hr-icon-unavailable;22.03.2020                                                  08:59;Suhl, Germany;50.607561;10.702077;doubt
Helios Klinikum Gifhorn;Campus  6;38518 Gifhorn;1.4 (Intensiv);NI;hr-icon-yellow;hr-icon-green;hr-icon-red;18.03.2020                                                  10:45;Campus, Gifhorn, Germany;52.494811;10.547501;doubt
Helios Klinikum Salzgitter;Kattowitzer Str. 191;38226 Salzgitter;Intensiv- und Überwachungsstation Website;NI;hr-icon-green;hr-icon-red;hr-icon-red;22.03.2020                                                  08:09;Salzgitter , Germany;52.12325;10.372852;doubt
ELBLAND Reha- und Präventions-GmbH;Am Bobersberg  4;1558 Großenhain;Beatmungsstation 4a Website;SN;hr-icon-red;hr-icon-yellow;hr-icon-unavailable;19.03.2020                                                  14:50;Am Bobersberg 4, Großenhain, Germany;51.287183;13.539201;success
Klinikum Ibbenbüren;Große Str.  41;49477 Ibbenbüren;operative Intensiv Website;NRW;hr-icon-red;hr-icon-yellow;hr-icon-green;22.03.2020                                                  11:43;Große Str. 41, Ibbenbueren, Germany;52.278609;7.713811;success
Evangelisches Diakoniekrankenhaus Freiburg;Wirthstr.  11;79110 Freiburg;Interdisziplinäre Intensivstation Website;BW;hr-icon-green;hr-icon-green;hr-icon-unavailable;22.03.2020                                                  07:38;Fribourg, Switzerland;46.693044;7.101021;doubt
Diakonieklinikum Neunkirchen;Brunnenstrasse 20;66538 Neunkirchen;interdisziplinäre Intensivstation;SL;hr-icon-yellow;hr-icon-yellow;hr-icon-red;19.03.2020                                                  12:32;Brunnenstraße 20, Neunkirchen, Germany;49.341165;7.18317;success
AGAPLESION Ev. Bathildiskrankenhaus;Maulbeerallee 4;31812 Bad Pyrmont;Interdisziplinäre Intensivstation Website;NI;hr-icon-green;hr-icon-green;hr-icon-red;20.03.2020                                                  07:13;Maulbeerallee 4, Bad Pyrmont, Germany;51.985718;9.274477;success
St. Anna Krankenhaus;Krankenhausstraße 16;92237 Sulzbach-Rosenberg;Intensivstation Website;BY;hr-icon-red;hr-icon-yellow;hr-icon-red;22.03.2020                                                  08:12;Krankenhausstraße 16, Sulzbach-Rosenberg, Germany;49.505032;11.729598;success
Sana Kliniken Duisburg;Zu den Rehwiesen  9-11;47055 Duisburg;A13/A11 Website;NRW;hr-icon-yellow;hr-icon-green;hr-icon-unavailable;22.03.2020                                                  07:11;Zu den Rehwiesen, Duisburg, Germany;51.398203;6.783802;doubt
Kreiskrankenhaus Grünstadt;Westring 55;67269 Grünstadt;Intensivstation Website;RP;hr-icon-green;hr-icon-green;hr-icon-unavailable;22.03.2020                                                  12:25;Westring 55, Grünstadt, Germany;49.56385;8.157923;success
Sanakrankenhaus Bad Doberan;Am Waldrand  1;18209 Hohenfelde;Intensivtherapiestation Website;MV;hr-icon-yellow;hr-icon-green;hr-icon-red;22.03.2020                                                  11:30;Hohenfelde, Germany;54.369621;10.495407;doubt
Katholisches Kinderkrankenhaus Wilhelmstift ;Liliencronstr. 130;22149 Hamburg;S1 Website;HH;hr-icon-green;hr-icon-green;hr-icon-unavailable;20.03.2020                                                  11:50;Hamburg, Germany;53.576158;10.007046;doubt
DRK Kinderklinik;Wellersberg Str.  60;57072 Siegen;Intensiv 1 Website;NRW;hr-icon-green;hr-icon-green;hr-icon-unavailable;17.03.2020                                                  20:14;Siegen, Germany;50.880516;8.036964;doubt
Immanuel Klinikum Bernau Herzzentrum Brandenburg;Ladeburger Str.  17;16321 Bernau bei Berlin;Intensivstation Website;BB;hr-icon-green;hr-icon-green;hr-icon-green;22.03.2020                                                  09:58;Bernau bei Berlin, Germany;52.678721;13.576713;doubt
St. Marienhospital Vechta gGmbH;Marienstraße 6-8;49377 Vechta;Interdisziplinäre Intensivstation Website;NI;hr-icon-green;hr-icon-green;hr-icon-red;17.03.2020                                                  18:41;Marienstraße 6-8, Vechta, Germany;52.725582;8.287137;success
St. Marienhospital Vechta gGmbH;Marienstraße 6-8;49377 Vechta;Interdisziplinäre Intensivstation Website;NI;hr-icon-green;hr-icon-green;hr-icon-unavailable;22.03.2020                                                  08:02;Marienstraße 6-8, Vechta, Germany;52.725582;8.287137;success
Gesundheitszentrum Glantal;Liebfrauenberg  32;55590 Meisenheim;IMC Website;RP;hr-icon-green;hr-icon-red;hr-icon-red;21.03.2020                                                  14:31;Meisenheim, Germany;49.709279;7.667451;doubt
Prosper-Hospital Recklinghausen Proselis Stiftungsklinik;Mühlenstr.  27;45659 Recklinghausen;Intensiv Website;NRW;hr-icon-red;hr-icon-green;hr-icon-red;19.03.2020                                                  20:54;Recklinghausen, Germany;51.586044;7.214087;doubt
Asklepios Fachkliniken Teupitz und Lübben;Buchholzer Str.  21;15755 Teupitz;ITS-Teupitz und Weaning-Lübben Website;BB;hr-icon-yellow;hr-icon-green;hr-icon-unavailable;21.03.2020                                                  20:37;Teupitz, Germany;52.131143;13.616065;doubt
Martin Luther Krankenhaus, Berlin;Caspar-Theyß-Straße  27-31;14193 Berlin;Intensivstation Website;BE;hr-icon-green;hr-icon-green;hr-icon-green;22.03.2020                                                  11:38;Caspar-Theyß-Straße 27-31, Berlin, Germany;52.490741;13.291403;success
BG Klinik Tübingen;Schnarrenbergstrasse 95;72076 Tübingen;Website;BW;hr-icon-green;hr-icon-green;hr-icon-red;20.03.2020                                                  15:41;Schnarrenbergstraße 95, Tübingen, Germany;48.533417;9.035022;success
GRN-Klinik Weinheim;Röntgenstr.  1a;69469 Weinheim;Intensivstation Website;BW;hr-icon-yellow;hr-icon-yellow;hr-icon-unavailable;20.03.2020                                                  16:19;Weinheim, Germany;49.546474;8.660934;doubt
Klinikum rechts der Isar der TU München Klinik für Anästhesiologie und Intensivmedizin;Ismaninger Str. 22;81675 München;Website;BY;hr-icon-yellow;hr-icon-yellow;hr-icon-yellow;20.03.2020                                                  09:08;Munich, Germany;48.152126;11.544467;doubt
Lungenklinik Neustadt;Badestrasse 23;99768 Harztor OT Neustadt;ITS und Weaningstation;TH;hr-icon-green;hr-icon-green;hr-icon-yellow;17.03.2020                                                  16:51;Badestraße 23, Neustadt/Harz, Germany;51.559833;10.839477;success
Pius-Hospital Oldenburg;Georgstrasse 12;26121 Oldenburg;Interdisziplinäre Intensivstation Website;NI;hr-icon-green;hr-icon-green;hr-icon-unavailable;20.03.2020                                                  16:29;Georgstraße, Oldenburg, Germany;53.144083;8.210649;doubt
St.-Antonius-Hospital gGmbH Eschweiler;Dechant-Deckers-Str.  8;52249 Eschweiler;Interdisziplinäre       Intensivstation Website;NRW;hr-icon-green;hr-icon-green;hr-icon-unavailable;20.03.2020                                                  18:50;Eschweiler, Germany;50.815001;6.278116;doubt
Evangelisches Krankenhaus Oldenburg;Steinweg  13-17;26122 Oldenburg;Station 28 Website;NI;hr-icon-green;hr-icon-green;hr-icon-green;21.03.2020                                                  23:34;Steinweg 13-17, Oldenburg, Germany;53.142689;8.205075;success
BG Klinikum Unfallkrankenhaus Berlin gGmbH - UKB;Warener Strasse  7;12683 Berlin;Website;BE;hr-icon-green;hr-icon-green;hr-icon-green;21.03.2020                                                  18:10;Warener Straße 7, Berlin, Germany;52.519365;13.566966;success
Kliniken Maria Hilf GmbH;Viersenerstraße  450;41063 Mönchengladbach;Website;NRW;hr-icon-green;hr-icon-green;hr-icon-green;20.03.2020                                                  22:37;Mönchengladbach, Germany;51.1821;6.428687;doubt
Uniklinik Köln Internistische Intensivstation ECMO Zentrum;Kerpenerstrasse 62;50937 Köln;4b Website;NRW;hr-icon-green;hr-icon-green;hr-icon-green;21.03.2020                                                  19:26;Cologne, Germany;50.94718;6.934628;doubt
Caritas-Klinik Berlin-Pankow;Breite Str.  46/47;13187 Berlin;Intensivstation  Website;BE;hr-icon-green;hr-icon-green;hr-icon-unavailable;22.03.2020                                                  10:02;Berlin, Germany;52.52045;13.40732;doubt
Dr. Horst-Schmidt Kliniken Wiesbaden;Ludwig-Erhard-Straße  100;65199 Wiesbaden;Website;HE;hr-icon-green;hr-icon-green;hr-icon-green;20.03.2013                                                  09:26;Ludwig-Erhard-Straße 100, Wiesbaden, Germany;50.065484;8.190829;success
Zentralklinik Bad Berka GmbH;Robert-Koch-Allee  9;99437 Bad Berka;;TH;hr-icon-green;hr-icon-green;hr-icon-green;20.03.2013                                                  09:26;Robert-Koch-Allee, Bad Berka, Germany;50.89242;11.27089;doubt
Universitätsmedizin Greifswald;;17475 Greifswald;Internistische ITS;MV;hr-icon-green;hr-icon-green;hr-icon-green;20.03.2013                                                  09:26;Greifswald, Germany;54.084992;13.385554;doubt
Brandenburg: Elbe-Elster-Klinikum GmbH;Alte Prettiner Str. 1;4916 Herzberg (Elster);;BB;hr-icon-green;hr-icon-green;hr-icon-green;20.03.2013                                                  09:26;Elster (Elbe), Germany;51.829558;12.822441;doubt
Berufsgenossenschaftliches Univ.-Klinikum Bergmannsheil Bochum;Bürkle-de-la-Camp-Platz  1;44789 Bochum;Chirurgische Intensivstation Website;NRW;hr-icon-green;hr-icon-green;hr-icon-green;21.03.2020                                                  08:49;Bürkle-de-la-Camp-Platz 1, Bochum, Germany;51.467983;7.209846;success
Helios Klinikum Pforzheim;Kanzlerstraße  2-6;75175 Pforzheim;ITS Website;BW;hr-icon-green;hr-icon-green;hr-icon-green;22.03.2020                                                  13:18;Kanzlerstraße 2-6, Pforzheim, Germany;48.888929;8.71273;success
Universitätsklinikum des Saarlandes;Kirrberger Strasse 100;66421 Homburg;M5-ICU;SL;hr-icon-green;hr-icon-green;hr-icon-green;17.03.2020                                                  12:07;Kirrberger Straße, Homburg, Germany;49.315062;7.342908;doubt
Universitätsklinikum Essen;Hufelandstr.  55;45122 Essen;;NRW;hr-icon-green;hr-icon-green;hr-icon-green;18.03.2020                                                  10:44;Hufelandstr. 55, Essen, Germany;51.436164;6.989754;success
Universitätsklinikum Knappschaftskrankenhaus Bochum;In der Schornau  23-25;44892 Bochum;Interdisziplinäre, operative Intensivstation Website;NRW;hr-icon-green;hr-icon-green;hr-icon-green;19.03.2020                                                  14:10;In der Schornau 23/25, Bochum, Germany;51.464671;7.327606;success
Universitätsklinikum Ulm;Albert-Einstein-Allee  23;89081 Ulm;F1;BW;hr-icon-yellow;hr-icon-green;hr-icon-green;18.03.2020                                                  12:56;Albert-Einstein-Allee, Ulm, Germany;48.419399;9.941839;doubt
Universitätsklinikum Regensburg;Franz-Josef-Strauss Allee 11;93053 Regensburg;gesamtes Klinikum Website;BY;hr-icon-green;hr-icon-green;hr-icon-green;20.03.2020                                                  20:26;Regensburg, Germany;49.021388;12.114729;doubt
Universitätsmedizin Mannheim ;Theodor Kutzer Ufer 1-3;68167 Mannheim;Gesamtkoordination Website;BW;hr-icon-yellow;hr-icon-yellow;hr-icon-green;21.03.2020                                                  11:40;68167, Mannheim, Germany;0;0;doubt
imland Klinik Rendsburg;Lilienstr.  20;24768 Rendsburg;Website;SH;hr-icon-green;hr-icon-green;hr-icon-green;20.03.2020                                                  19:07;Rendsburg, Germany;54.299862;9.662606;doubt
Universitätsmedizin Mainz;Langenbeckstraße  1;55131 Mainz;Anästhesiologische Intensivstation;RP;hr-icon-green;hr-icon-green;hr-icon-green;20.03.2013                                                  09:26;Langenbeckstraße 1, Mainz, Germany;49.993493;8.255858;success
Helios Universitätsklinikum Wuppertal;Heusnerstr.  40;42283 Wuppertal;Operative und konservative Intensiv Website;NRW;hr-icon-green;hr-icon-green;hr-icon-green;22.03.2020                                                  10:37;Wuppertal, Germany;51.265292;7.143049;doubt
Thoraxklinik des Universitätsklinikums Heidelberg;Röntgenstr.  1;69126 Heidelberg;Intensivstation 1 Website;BW;hr-icon-green;hr-icon-green;hr-icon-green;22.03.2020                                                  13:34;Heidelberg, Germany;49.37625;8.769869;doubt
Universitätsklinikum Leipzig;Liebigstr. 20;4103 Leipzig;Gesamtes Klinikum Website;SN;hr-icon-green;hr-icon-green;hr-icon-green;19.03.2020                                                  15:00;Leipzig, Germany;51.341053;12.404024;doubt
ARDS und ECLS/ECMO-Zentrum Klinikum Kassel;Mönchebergstr.  38-41;34125 Kassel;ECMO-Zentrum (C73) Website;HE;hr-icon-green;hr-icon-green;hr-icon-green;22.03.2020                                                  10:46;Kassel, Germany;51.309934;9.47572;doubt
Klinikum Herford;Schwarzenmoorstr. 70;32049 Herford;Intensivstation 1 Website;NRW;hr-icon-green;hr-icon-green;hr-icon-green;21.03.2020                                                  08:06;Herford, Germany;52.115529;8.667448;doubt
Asklepios Klinikum Hamburg-Harburg;Eißendorfer Pferdeweg 52;21075 Hamburg;Intensivstation 91 Website;HH;hr-icon-green;hr-icon-green;hr-icon-green;21.03.2020                                                  15:33;Eißendorfer Pferdeweg 52, Hamburg, Germany;53.459436;9.950277;success
Universitätsklinikum Schleswig-Holstein;Ratzeburger Allee  160;23538 Lübeck;Sektion Interdisziplinäre operative Intensivmedizin Website;SH;hr-icon-green;hr-icon-green;hr-icon-green;16.03.2020                                                  12:36;Ratzeburger Allee 160, Lübeck, Germany;53.838778;10.707901;success
Klinikum Bremen Mitte;St. Jürgenstr.  1;28177 Bremen;;HB;hr-icon-red;hr-icon-green;hr-icon-yellow;20.03.2020                                                  07:53;Bremen, Germany;53.029599;8.731851;doubt
Barmherzige Brüder München;Romanstraße  93;80639 München;Website;BY;hr-icon-green;hr-icon-green;hr-icon-green;21.03.2020                                                  13:45;Romanstraße 93, Munich, Germany;48.156195;11.509581;success
Klinikum Emden interdisziplinäre Intensivmedizin;Bolardusstr.  20;26721 Emden;Interdisziplinäre intensivmedizin Website;NI;hr-icon-green;hr-icon-green;hr-icon-green;21.03.2020                                                  11:02;Emden, Germany;53.362663;7.206439;doubt
Universitätsklinikum Würzburg;Oberdürrbacherstr.  6;97080 Würzburg;COVID-ICU Stationen Website;BY;hr-icon-green;hr-icon-green;hr-icon-green;22.03.2020                                                  13:56;Wurzburg, Germany;49.784984;9.941828;doubt
Medizinische Hochschule Hannover;Carl-Neuberg-Strasse  1;30625 Hannover;;NI;hr-icon-green;hr-icon-green;hr-icon-green;20.03.2013                                                  09:26;Carl-Neuberg-Straße 1, Hanover, Germany;52.38312;9.806353;success
Uniklinik Düsseldorf;Moorenstr.  5;40225 Düsseldorf;Intensivstation;NRW;hr-icon-green;hr-icon-green;hr-icon-green;20.03.2013                                                  09:26;Dusseldorf, Germany;51.226297;6.801324;doubt
RKH Klinikum Ludwigsburg;Posilipostraße  4;71640 Ludwigsburg;Stationen des Zentrums für Intensivmedizin Website;BW;hr-icon-green;hr-icon-green;hr-icon-green;22.03.2020                                                  11:47;Posilipostraße 4, Ludwigsburg, Germany;48.898686;9.202918;success
Klinikverbund Allgäu - Klinik Immenstadt;Im Stillen  2;87509 Immenstadt/Allgäu;Intensivstation Website;BY;hr-icon-green;hr-icon-green;hr-icon-green;20.03.2020                                                  11:23;Im Stillen 2, Immenstadt i. Allgäu, Germany;47.561875;10.227313;success
Augusta-Kliniken Bochum-Mitte;Bergstr.  26;44791 Bochum;I-12 Website;NRW;hr-icon-green;hr-icon-green;hr-icon-green;22.03.2020                                                  09:22;Bergstr. 26, Bochum, Germany;51.485244;7.221588;success
ARDS und ECMO Zentrum Köln-Merheim, Kliniken der Stadt Köln,;Ostmerheimerstr. 200;51109 Köln;;NRW;hr-icon-green;hr-icon-green;hr-icon-green;18.03.2020                                                  21:44;Cologne, Germany;50.94718;6.934628;doubt
Klinikum Frankfurt Höchst;Gotenstr.  6;65929 Frankfurt/Main;Website;HE;hr-icon-green;hr-icon-green;hr-icon-green;22.03.2020                                                  09:45;Frankfurt, Germany;50.041821;8.584764;doubt
Universität München Campus Großhadern;Marchioninistr.  15;81377 München;Website;BY;hr-icon-green;hr-icon-green;hr-icon-green;21.03.2020                                                  09:29;Munich, Germany;48.152126;11.544467;doubt
Marienhospital Osnabrück;Bischofsstrasse  1;49074 Osnabrück;Website;NI;hr-icon-green;hr-icon-green;hr-icon-green;21.03.2020                                                  15:21;Bischofsstraße 1, Osnabrück, Germany;52.270202;8.053784;success
Universitätsmedizin Rostock;Schillingallee  35;18057 Rostock;PIT 1+2 Website;MV;hr-icon-green;hr-icon-green;hr-icon-green;20.03.2020                                                  13:32;Schillingallee 35, Rostock, Germany;54.085046;12.101097;success
Klinikum Dortmund;Beurhausstr. 40;44137 Dortmund;C12 Website;NRW;hr-icon-red;hr-icon-yellow;hr-icon-yellow;18.03.2020                                                  06:07;Dortmund, Germany;51.507849;7.479247;doubt
Universitätsmedizin Göttingen;Robert-Koch-Str.  40;37075 Göttingen;Website;NI;hr-icon-green;hr-icon-green;hr-icon-green;20.03.2020                                                  22:49;Göttingen, Germany;51.543046;9.93664;doubt
Universitätsklinikum Münster;Albert-Schweitzer-Campus 1;48149 Münster;Website;NRW;hr-icon-green;hr-icon-green;hr-icon-green;19.03.2020                                                  15:47;Albert-Schweitzer-Campus 1, Münster, Germany;51.961233;7.596072;success
Universitätsklinikum Tübingen;Hoppe-Seyler-Str. 3;72076 Tübingen;Website;BW;hr-icon-green;hr-icon-green;hr-icon-green;20.03.2013                                                  09:26;Tübingen, Germany;48.523078;9.059097;doubt
Universitätsklinik RWTH Aachen;Paulwelsstraße  30;52074 Aachen;OIM Website;NRW;hr-icon-yellow;hr-icon-yellow;hr-icon-yellow;19.03.2020                                                  12:27;Aachen, Germany;50.774209;6.08443;doubt
HELIOS Klinikum Erfurt;Nordhäuserstrasse  74;99089 Erfurt;Website;TH;hr-icon-green;hr-icon-green;hr-icon-green;20.03.2020                                                  21:04;Erfurt, Germany;50.982915;11.026063;doubt
Brüderkrankenhaus Trier;Nordalle  1;54292 Trier;Intensivstation 1E2 Website;RP;hr-icon-green;hr-icon-yellow;hr-icon-green;21.03.2020                                                  10:49;Nordallee 1, Trier, Germany;49.762662;6.639289;doubt
Universitätsklinikum Gießen / Marburg;Rudolf-Buchheim-Straße  7;35392 Gießen;Website;HE;hr-icon-green;hr-icon-green;hr-icon-green;18.03.2020                                                  14:01;Rudolf-Buchheim-Straße, Giessen, Germany;50.576806;8.665144;doubt
Universitätsklinikum Hamburg-Eppendorf;Martinistraße  52;20251 Hamburg;Website;HH;hr-icon-green;hr-icon-green;hr-icon-green;22.03.2020                                                  13:47;Martinistraße 52, Hamburg, Germany;53.592179;9.975601;success
Universitätsklinikum Dresden;Fetscherstraße  74;1307 Dresden;ARDS/ECMO Zentrum Dresden (ANE-ITS) Website;SN;hr-icon-green;hr-icon-green;hr-icon-green;21.03.2020                                                  18:56;Fetscherstraße 74, Dresden, Germany;51.054463;13.779898;success
Universitätsklinikum Erlangen;Krankenhausstr.  12;91054 Erlangen;Koordination  Website;BY;hr-icon-green;hr-icon-green;hr-icon-green;21.03.2020                                                  18:03;Erlangen, Germany;49.582771;10.991866;doubt
Universitätsklinikum Bonn;Campus Venusberg  1;53127 Bonn;Operative Intensivmedizin Website;NRW;hr-icon-green;hr-icon-green;hr-icon-green;18.03.2020                                                  12:07;Telekom Campus, Bonn, Germany;50.722449;7.14353;success
Klinikum Nürnberg;Prof.-Ernst-Nathan-Str. 1;90419 Nürnberg;Website;BY;hr-icon-green;hr-icon-green;hr-icon-green;20.03.2013                                                  09:26;Nuremberg, Germany;49.446007;11.07977;doubt
Helios Klinikum Bad Saarow;Pieskower Straße  33;15526 Bad Saarow;ITS 1, ITS 2, ITS 3 Website;BB;hr-icon-yellow;hr-icon-green;hr-icon-green;22.03.2020                                                  09:42;Pieskower Straße 33, Bad Saarow, Germany;52.284383;14.064411;success
Elisabeth-Krankenhaus Essen;Klara-Kopp-Weg  1;45138 Essen;kardiologisch- internistische Intensivstation Website;NRW;hr-icon-green;hr-icon-green;hr-icon-green;22.03.2020                                                  08:42;Klara-Kopp-Weg 1, Essen, Germany;51.445484;7.033164;success
Charité - Universitätsmedizin Berlin;Augustenburger Platz  1;15535 Berlin;8i/144i/43i Website;BE;hr-icon-green;hr-icon-green;hr-icon-green;20.03.2020                                                  15:22;Augustenburger Platz 1, Berlin, Germany;52.542332;13.34784;success
